{"version": 0.6, "generator": "Overpass API 0.7.62.7 375dc00a", "osm3s": {"timestamp_osm_base": "2025-07-07T02:13:03Z", "copyright": "The data included in this document is from www.openstreetmap.org. The data is made available under ODbL."}, "elements": [{"type": "node", "id": 3401953326, "lat": 15.8409967, "lon": -97.0445473}, {"type": "node", "id": 3401953331, "lat": 15.8412075, "lon": -97.0436383}, {"type": "node", "id": 3401953336, "lat": 15.8415205, "lon": -97.0448987}, {"type": "node", "id": 3401953340, "lat": 15.8416416, "lon": -97.0435081}, {"type": "node", "id": 3401953346, "lat": 15.8419045, "lon": -97.0441199}, {"type": "node", "id": 3401953347, "lat": 15.8423136, "lon": -97.0445625}, {"type": "node", "id": 3401953348, "lat": 15.8423741, "lon": -97.0444128}, {"type": "node", "id": 3401953563, "lat": 15.8531867, "lon": -97.0463378}, {"type": "node", "id": 3401953567, "lat": 15.8535415, "lon": -97.0453811}, {"type": "node", "id": 3401953574, "lat": 15.8540486, "lon": -97.0466654}, {"type": "node", "id": 3401953583, "lat": 15.8544013, "lon": -97.045687}, {"type": "node", "id": 4149605189, "lat": 15.8615813, "lon": -97.0648982, "tags": {"addr:housenumber": "21", "addr:street": "P\u00e9rez Gazga", "amenity": "school", "name": "Experiencia Spanish School", "phone": "+52 (954) 582 1818", "website": "https://spanishpuerto.com/"}}, {"type": "node", "id": 4464809593, "lat": 15.8729231, "lon": -97.070046, "tags": {"addr:city": "Puerto Excondido", "addr:postcode": "71980", "addr:state": "Oax", "addr:street": "Calle Primera Poniente", "amenity": "school", "grades": "1-6", "name": "Escuela primaria 21 de marzo", "name:es": "Primaria 21 de Marzo"}}, {"type": "node", "id": 4464814297, "lat": 15.8720268, "lon": -97.0708343, "tags": {"addr:postcode": "71989", "addr:street": "Av. Oaxaca", "amenity": "school", "name": "Secundaria T\u00e9cnica No 86", "name:es": "Secundaria T\u00e9cnica No 86"}}, {"type": "node", "id": 4470889893, "lat": 15.8616017, "lon": -97.0801481, "tags": {"addr:housenumber": "227", "addr:street": "Blv. Benito Juarez", "amenity": "school", "website": "https://www.spanishandsurflessonsmexico.com/"}}, {"type": "node", "id": 4470889895, "lat": 15.8616751, "lon": -97.0787088, "tags": {"addr:housenumber": "6", "addr:street": "Boulevard Benito Ju\u00e1rez", "amenity": "school", "name": "Oasis Surf & Spanish"}}, {"type": "node", "id": 6150882892, "lat": 15.9233578, "lon": -97.119461}, {"type": "node", "id": 6150882893, "lat": 15.9231574, "lon": -97.118652}, {"type": "node", "id": 6150882894, "lat": 15.9226878, "lon": -97.1187775}, {"type": "node", "id": 6150882895, "lat": 15.922891, "lon": -97.1195957}, {"type": "node", "id": 6150882896, "lat": 15.9233553, "lon": -97.1194668}, {"type": "node", "id": 6150882897, "lat": 15.9231404, "lon": -97.119526}, {"type": "node", "id": 6150882899, "lat": 15.9233287, "lon": -97.1193451}, {"type": "node", "id": 6150893097, "lat": 15.9228778, "lon": -97.1195428}, {"type": "node", "id": 6151321572, "lat": 15.866454, "lon": -97.0767286}, {"type": "node", "id": 6151321573, "lat": 15.8673573, "lon": -97.0764795}, {"type": "node", "id": 6151321574, "lat": 15.8669524, "lon": -97.0757023}, {"type": "node", "id": 6151321575, "lat": 15.8660208, "lon": -97.0759764}, {"type": "node", "id": 6151323217, "lat": 15.8672192, "lon": -97.0762224}, {"type": "node", "id": 6151323218, "lat": 15.867177, "lon": -97.0761462}, {"type": "node", "id": 6151379861, "lat": 15.9197237, "lon": -97.1268826}, {"type": "node", "id": 6151379862, "lat": 15.9204899, "lon": -97.126411}, {"type": "node", "id": 6151379863, "lat": 15.9206932, "lon": -97.1291227}, {"type": "node", "id": 6151379864, "lat": 15.9203726, "lon": -97.1293056}, {"type": "node", "id": 6151379865, "lat": 15.9193972, "lon": -97.1270304}, {"type": "node", "id": 6151379866, "lat": 15.9182332, "lon": -97.1277737}, {"type": "node", "id": 6151379867, "lat": 15.919116, "lon": -97.1298914}, {"type": "node", "id": 6151379997, "lat": 15.9190694, "lon": -97.1272397}, {"type": "node", "id": 6151380052, "lat": 15.9198441, "lon": -97.1268085}, {"type": "node", "id": 6151380069, "lat": 15.9196165, "lon": -97.1275468}, {"type": "node", "id": 6151380094, "lat": 15.9201485, "lon": -97.1274649, "tags": {"amenity": "school", "name": "Secundaria Tecnica 122"}}, {"type": "node", "id": 6154328203, "lat": 15.9233034, "lon": -97.1192428}, {"type": "node", "id": 6154328206, "lat": 15.9228016, "lon": -97.1192385}, {"type": "node", "id": 6154427126, "lat": 15.9219122, "lon": -97.1156365}, {"type": "node", "id": 6154427127, "lat": 15.9219921, "lon": -97.115151}, {"type": "node", "id": 6154427128, "lat": 15.9217033, "lon": -97.1150732}, {"type": "node", "id": 6154427129, "lat": 15.9216414, "lon": -97.1155989}, {"type": "node", "id": 6154427130, "lat": 15.9217586, "lon": -97.1153936}, {"type": "node", "id": 6154427131, "lat": 15.9216811, "lon": -97.1153794}, {"type": "node", "id": 6154427132, "lat": 15.9217286, "lon": -97.1150991}, {"type": "node", "id": 6154427133, "lat": 15.9218062, "lon": -97.1151134}, {"type": "node", "id": 6154427134, "lat": 15.9219362, "lon": -97.1154681}, {"type": "node", "id": 6154427135, "lat": 15.9218586, "lon": -97.1154539}, {"type": "node", "id": 6154427136, "lat": 15.9219062, "lon": -97.1151736}, {"type": "node", "id": 6154427137, "lat": 15.9219837, "lon": -97.1151879}, {"type": "node", "id": 6154427138, "lat": 15.9218477, "lon": -97.1154416}, {"type": "node", "id": 6154427139, "lat": 15.9217701, "lon": -97.1154273}, {"type": "node", "id": 6154427140, "lat": 15.9218177, "lon": -97.1151471}, {"type": "node", "id": 6154427141, "lat": 15.9218952, "lon": -97.1151613}, {"type": "node", "id": 6154427145, "lat": 15.9218507, "lon": -97.1154237}, {"type": "node", "id": 6820764586, "lat": 15.8653864, "lon": -97.0815775}, {"type": "node", "id": 6820764593, "lat": 15.8656496, "lon": -97.081471}, {"type": "node", "id": 6820764598, "lat": 15.8651215, "lon": -97.0808703}, {"type": "node", "id": 6820764606, "lat": 15.8653848, "lon": -97.0807638}, {"type": "node", "id": 6821345742, "lat": 15.8624086, "lon": -97.0728395}, {"type": "node", "id": 6821345744, "lat": 15.8614764, "lon": -97.0732723}, {"type": "node", "id": 6821345746, "lat": 15.8617893, "lon": -97.0751322}, {"type": "node", "id": 6821345747, "lat": 15.8621646, "lon": -97.0739049}, {"type": "node", "id": 6821345748, "lat": 15.8622623, "lon": -97.073437}, {"type": "node", "id": 6821345753, "lat": 15.8621152, "lon": -97.0748191}, {"type": "node", "id": 6821345754, "lat": 15.8617151, "lon": -97.0749287}, {"type": "node", "id": 6821345757, "lat": 15.8616081, "lon": -97.072929}, {"type": "node", "id": 6821345761, "lat": 15.8615102, "lon": -97.0735422}, {"type": "node", "id": 7162146086, "lat": 15.8597746, "lon": -97.0787707, "tags": {"amenity": "school", "name": "Chenek surf school"}}, {"type": "node", "id": 8148874493, "lat": 15.9732005, "lon": -96.7010428, "tags": {"amenity": "school", "grades": "8-10", "name": "Escuela Telesecundaria"}}, {"type": "node", "id": 8148874494, "lat": 15.9711298, "lon": -96.7059808, "tags": {"amenity": "school", "grades": "1-7", "name": "Primaria Vicente Guerrero"}}, {"type": "node", "id": 8148874495, "lat": 15.9724692, "lon": -96.7086323, "tags": {"amenity": "school", "name": "Preescolar"}}, {"type": "node", "id": 9093791480, "lat": 15.872521, "lon": -97.0827129}, {"type": "node", "id": 9093791484, "lat": 15.872707, "lon": -97.0830908}, {"type": "node", "id": 9093791487, "lat": 15.8731589, "lon": -97.0828456}, {"type": "node", "id": 9093791492, "lat": 15.8731942, "lon": -97.081882}, {"type": "node", "id": 9093791505, "lat": 15.8727102, "lon": -97.0821309}, {"type": "node", "id": 9093791510, "lat": 15.8729063, "lon": -97.0825062}, {"type": "node", "id": 12366330339, "lat": 15.8241006, "lon": -97.0279352, "tags": {"amenity": "school", "name": "Escuela Primaria Narciso Mendoza", "postal_code": "70938"}}, {"type": "node", "id": 12366332733, "lat": 15.9295875, "lon": -97.0817888, "tags": {"addr:postcode": "70839", "addr:street": "Carretera Oaxaca - Puerto Escondido", "amenity": "school", "name": "Escuela Primaria Rural Federal Benito Ju\u00e1rez"}}, {"type": "node", "id": 12366343148, "lat": 15.8646306, "lon": -97.0698856, "tags": {"addr:postcode": "71980", "addr:street": "Calle Primera Poniente", "amenity": "school", "contact:email": "salademedios.alm@gmail.com", "name": "Escuela Primaria Urbana Formal Matutina Lic Adolfo L\u00f3pez Mateos"}}, {"type": "node", "id": 12366369481, "lat": 15.8580994, "lon": -97.0685209, "tags": {"amenity": "school", "name": "Escuela Primaria Urbana Formal las Primeras Luces", "postal_code": "71980"}}, {"type": "node", "id": 12366380023, "lat": 15.8592424, "lon": -97.0567245, "tags": {"addr:postcode": "70934", "addr:state": "Oax", "addr:street": "Privada del Batall\u00f3n", "amenity": "school", "name": "Escuela Primaria Josefa Ortiz De Dom\u00ednguez"}}, {"type": "node", "id": 12366504756, "lat": 15.8938441, "lon": -97.0800971, "tags": {"amenity": "school", "name": "Colegio de Bachilleres del Estado de Oaxaca Plantel 66", "postal_code": "71980"}}, {"type": "node", "id": 12366510662, "lat": 15.8848509, "lon": -97.0801182, "tags": {"addr:street": "Calle Guillermo Prieto", "amenity": "school", "name": "Misi\u00f3n Cultural Rural 23", "postal_code": "71980"}}, {"type": "node", "id": 12366982494, "lat": 15.8442586, "lon": -97.0482203, "tags": {"addr:city": "Puerto Escondido", "addr:postcode": "70934", "addr:street": "Calle Cedro", "amenity": "school", "name": "ESCUELA PRIMARIA SOR JUANA IN\u00c9S DE LA CRUZ"}}, {"type": "node", "id": 12368910627, "lat": 15.8559563, "lon": -97.0520511, "tags": {"addr:postcode": "70934", "amenity": "school", "grades": "1-3", "name": "Escuela Secundaria General L\u00e1zaro C\u00e1rdenas"}}, {"type": "node", "id": 12368922623, "lat": 15.8855508, "lon": -97.0809835, "tags": {"addr:postcode": "71980", "addr:street": "Calle Benito Ju\u00e1rez", "amenity": "school", "name": "Escuela Primaria Octavio Paz"}}, {"type": "node", "id": 12368924281, "lat": 15.8983126, "lon": -97.0463696, "tags": {"addr:postcode": "71980", "addr:street": "Calle Hermenegildo Galeana", "amenity": "school", "name": "Escuela Primaria Emiliano Zapata"}}, {"type": "node", "id": 12368939186, "lat": 15.8717362, "lon": -97.0639305, "tags": {"addr:postcode": "70839", "amenity": "school", "grades": "1-6", "name": "Escuela Primaria Formal Ignacio Manuel Altamirano"}}, {"type": "node", "id": 12368943195, "lat": 15.8684075, "lon": -97.0576, "tags": {"addr:postcode": "70934", "amenity": "school", "name": "Escuela Primaria Ixcoatl"}}, {"type": "node", "id": 12368969422, "lat": 15.8589825, "lon": -97.0086202, "tags": {"addr:postcode": "70934", "addr:street": "Camino a Malucano", "amenity": "school", "name": "Escuela Preescolar Miguel Hidalgo"}}, {"type": "node", "id": 12372598316, "lat": 15.8923159, "lon": -97.0466301, "tags": {"addr:city": "70938", "amenity": "school", "name": "Escuela primaria general matutina Juan Escutia"}}, {"type": "node", "id": 12374138345, "lat": 15.8632265, "lon": -97.0171107, "tags": {"addr:postcode": "70934", "addr:street": "Camino a Malucano", "amenity": "school", "name": "Escuela Primaria Rural Federal Manuel Sabino Crespo"}}, {"type": "node", "id": 12374601462, "lat": 15.8839276, "lon": -97.1071284, "tags": {"addr:postcode": "71996", "amenity": "school", "name": "ESCUELA PRIMARIA RURAL VICENTE GUERRERO"}}, {"type": "node", "id": 12374613885, "lat": 15.8418552, "lon": -97.0435447, "tags": {"addr:postcode": "70934", "addr:street": "Calle Alejandro C\u00e1rdenas Peralta", "amenity": "school", "name": "Escuela Secundaria General Juana de Asbaje"}}, {"type": "node", "id": 12374660306, "lat": 15.8621777, "lon": -97.0739175, "tags": {"addr:neighbourhood": "CAMINO CARRIZALILLO", "addr:postcode": "71980", "addr:street": "Boulevard del Pac\u00edfico", "amenity": "school", "name": "Escuel Secundaria T\u00e9cnica #174"}}, {"type": "node", "id": 12374681216, "lat": 15.8827035, "lon": -97.0880592, "tags": {"addr:postcode": "71980", "amenity": "school", "name": "ESCUELA SECUNDARIA 210 TECNICA MODULO LA PAROTA"}}, {"type": "node", "id": 12374698397, "lat": 15.8225869, "lon": -97.0220214, "tags": {"addr:postcode": "70938", "addr:street": "Carretera Costera", "amenity": "school", "name": "Escuela Primaria General Ignacio Mariscal"}}, {"type": "node", "id": 12374710825, "lat": 15.8705648, "lon": -97.0750976, "tags": {"addr:postcode": "71980", "addr:street": "Calle Cuarta Poniente", "amenity": "school", "name": "Colegio Amistad Puerto Escondido", "phone": "9545823636"}}, {"type": "node", "id": 12374712278, "lat": 15.8856186, "lon": -97.0260293, "tags": {"addr:postcode": "70934", "amenity": "school", "name": "Escuela Primaria General Francisco Villa"}}, {"type": "node", "id": 12374811571, "lat": 15.8872782, "lon": -97.0815684, "tags": {"addr:postcode": "71980", "addr:street": "Calle Iturbide", "amenity": "school", "name": "Mision Cultural Rural 23"}}, {"type": "node", "id": 12374838926, "lat": 15.8670671, "lon": -97.0767242, "tags": {"addr:city": "Puerto Escondido", "addr:postcode": "71984", "addr:state": "Oax", "addr:street": "Calle Oc\u00e9ano Atl\u00e1ntico", "amenity": "school", "name": "Colegio Calmecac Nivel Preparatoria", "phone": "9545820499"}}, {"type": "node", "id": 12374850850, "lat": 15.872566, "lon": -97.0828425, "tags": {"addr:postcode": "71980", "addr:street": "Av. Costa Chica", "amenity": "school", "name": "Escuela Primaria Formal Justo Sierra"}}, {"type": "node", "id": 12374854860, "lat": 15.8636863, "lon": -97.0714024, "tags": {"addr:postcode": "71980", "addr:street": "Calle Segunda Norte", "amenity": "school", "name": "Escuela Centro de Inform\u00e1tica Charles Babbage"}}, {"type": "node", "id": 12374860233, "lat": 15.8765691, "lon": -97.0700835, "tags": {"addr:city": "Puerto Escondido", "addr:postcode": "71980", "addr:state": "Oax", "addr:street": "Calle Mar Mediterr\u00e1neo", "amenity": "school", "name": "Escuela Primaria Vicente Guerrero"}}, {"type": "node", "id": 12374881364, "lat": 15.8964591, "lon": -97.0463414, "tags": {"addr:postcode": "71980", "amenity": "school", "name": "Telesecundaria La Uni\u00f3n"}}, {"type": "node", "id": 12374930170, "lat": 15.8709346, "lon": -97.0617615, "tags": {"addr:postcode": "70934", "amenity": "school", "name": "Escuela Secundaria Tecnica 145"}}, {"type": "node", "id": 12374974340, "lat": 15.8613059, "lon": -97.000068, "tags": {"addr:postcode": "70934", "amenity": "school", "name": "Escuela Primaria Vicente Guerrero Arroyo del Zapote"}}, {"type": "node", "id": 12375011109, "lat": 15.8713732, "lon": -97.0708407, "tags": {"addr:postcode": "71980", "addr:street": "Calle Novena Norte", "amenity": "school", "name": "Escuela Secundaria Tecnica 86"}}, {"type": "node", "id": 12375012965, "lat": 15.8646961, "lon": -97.0717125, "tags": {"addr:street": "Calle Tercera Poniente", "amenity": "school", "email": "cg.puertoescondido@outlook.com", "name": "Escuela IPEIC", "phone": "9541044578"}}, {"type": "node", "id": 12375027381, "lat": 15.8721162, "lon": -97.0820872, "tags": {"addr:postcode": "71984", "addr:street": "Av. Costa Chica", "amenity": "school", "name": "Instituto Alfa"}}, {"type": "node", "id": 12376648617, "lat": 15.8694769, "lon": -97.0776951, "tags": {"addr:postcode": "71984", "addr:street": "Calle Salinas de Gortari", "amenity": "school", "email": "colegiojuanrulfo@gmail.com", "name": "Centro Escolar Juan Rulfo", "source": "71984"}}, {"type": "node", "id": 12376773510, "lat": 15.8818011, "lon": -97.0925868, "tags": {"addr:postcode": "71980", "addr:street": "Calle Ceiba", "amenity": "school", "name": "Escuela Primaria Urbana Formal \u00c1lvaro Carrillo Alarc\u00f3n"}}, {"type": "node", "id": 12376816991, "lat": 15.8796382, "lon": -97.0850071, "tags": {"addr:postcode": "71980", "addr:street": "Calle los Tamarindos", "amenity": "school", "email": "sec.gral.libertadoresdeamerica@gmail.com", "name": "Secundaria General Particular Libertadores de Am\u00e9rica", "phone": "9541469368"}}, {"type": "node", "id": 12376897773, "lat": 15.8739402, "lon": -96.9920254, "tags": {"addr:city": "Puerto Escondido", "addr:postcode": "70934", "addr:state": "Oax", "addr:street": "Camino a Malucano", "amenity": "school", "grades": "1-6", "name": "Escuela primaria federal Alvaro Obregon"}}, {"type": "node", "id": 12376974134, "lat": 15.9183926, "lon": -97.0779902, "tags": {"addr:city": "Puerto Escondido", "addr:postcode": "70839", "addr:state": "Oax", "amenity": "school", "grades": "1-6", "name": "Escuela primaria \"Melchor Ocampo\""}}, {"type": "node", "id": 12377087556, "lat": 15.8617407, "lon": -97.0777971, "tags": {"addr:postcode": "71980", "addr:street": "Boulevard Benito Ju\u00e1rez", "amenity": "school", "name": "Calli Centro de Idiomas"}}, {"type": "node", "id": 12377171203, "lat": 15.8690641, "lon": -97.0576778, "tags": {"addr:city": "Puerto Escondido", "addr:postcode": "70934", "addr:state": "Oax", "addr:street": "Cerrada Cerro Piedra", "amenity": "school", "grades": "1-6", "name": "Escuela primaria 16 de Septiembre"}}, {"type": "node", "id": 12377683842, "lat": 15.8853492, "lon": -97.0660459, "tags": {"addr:postcode": "71980", "amenity": "school", "name": "Escuela Primaria Miguel Hidalgo y Costilla"}}, {"type": "node", "id": 12378782304, "lat": 15.8383339, "lon": -97.0413798, "tags": {"addr:city": "Brisas de Zicatela", "addr:postcode": "70934", "addr:state": "Oaxaca", "addr:street": "Avenida Brisas", "amenity": "school", "grades": "1-6", "name": "Escuela primaria Tierra y Libertad"}}, {"type": "node", "id": 12379012131, "lat": 15.8822461, "lon": -97.0750489, "tags": {"addr:city": "Las Flores, Puerto Esconcido", "addr:postcode": "71980", "addr:state": "Oaxaca", "addr:street": "Calle Tulipanes", "amenity": "school", "grades": "1-6", "name": "Escuela Primaria Jos\u00e9 Mar\u00eda Morelos"}}, {"type": "node", "id": 12381007991, "lat": 15.8254602, "lon": -97.0300953, "tags": {"addr:postcode": "70934", "amenity": "school", "name": "Escuela Secundaria T\u00e9cnica N\u00famero 235"}}, {"type": "node", "id": 12393037009, "lat": 15.8334318, "lon": -97.0425633, "tags": {"addr:city": "Puerto Escondido", "addr:postcode": "70934", "addr:state": "Oaxaca", "addr:street": "Calle Guerrero", "amenity": "school", "name": "Clases de surf Puertosurf Lessons"}}, {"type": "node", "id": 12393058372, "lat": 15.867722, "lon": -97.075541, "tags": {"addr:city": "Puerto Escondido", "addr:postcode": "71984", "addr:state": "Oax", "addr:street": "Puerto Piedra", "amenity": "school", "name": "Clases de Ajedrez", "phone": "9541115115"}}, {"type": "node", "id": 12394884559, "lat": 15.864805, "lon": -97.0658349, "tags": {"addr:postcode": "71980", "addr:street": "Calle Cuarta Oriente", "amenity": "school", "email": "manantialac1@gmai.com", "name": "Centro Educativo El Manantial Secundaria"}}, {"type": "way", "id": 333082745, "nodes": [3401953574, 3401953563, 3401953567, 3401953583, 3401953574], "tags": {"addr:postcode": "70934", "addr:state": "Oax", "addr:street": "Calle Mariano Matamoros", "amenity": "school", "name": "Escuela Primaria Formal 1972 A\u00f1o De Juarez"}}, {"type": "way", "id": 333082748, "nodes": [3401953348, 3401953346, 3401953340, 3401953331, 3401953326, 3401953336, 3401953347, 3401953348], "tags": {"amenity": "school"}}, {"type": "way", "id": 656641095, "nodes": [6150882892, 6150882899, 6154328203, 6150882893, 6150882894, 6154328206, 6150893097, 6150882895, 6150882897, 6150882896, 6150882892], "tags": {"amenity": "school"}}, {"type": "way", "id": 656699204, "nodes": [6151321572, 6151321573, 6151323217, 6151323218, 6151321574, 6151321575, 6151321572], "tags": {"amenity": "school"}}, {"type": "way", "id": 656706361, "nodes": [6151379861, 6151380052, 6151379862, 6151379863, 6151379864, 6151380069, 6151379865, 6151379861], "tags": {"amenity": "school"}}, {"type": "way", "id": 656706362, "nodes": [6151379865, 6151379997, 6151379866, 6151379867, 6151379864, 6151380069, 6151379865], "tags": {"amenity": "school"}}, {"type": "way", "id": 657084389, "nodes": [6154427126, 6154427127, 6154427128, 6154427129, 6154427126], "tags": {"amenity": "school"}}, {"type": "way", "id": 657084390, "nodes": [6154427130, 6154427131, 6154427132, 6154427133, 6154427130], "tags": {"amenity": "school"}}, {"type": "way", "id": 657084391, "nodes": [6154427134, 6154427135, 6154427136, 6154427137, 6154427134], "tags": {"amenity": "school"}}, {"type": "way", "id": 657084392, "nodes": [6154427138, 6154427139, 6154427140, 6154427141, 6154427145, 6154427138], "tags": {"amenity": "school"}}, {"type": "way", "id": 727846105, "nodes": [6820764593, 6820764606, 6820764598, 6820764586, 6820764593], "tags": {"addr:city": "Puerto Escondido", "addr:postcode": "71983", "addr:state": "Oaxaca", "addr:street": "Avenida Tlacochahuaya", "amenity": "school", "name": "Colegio Benjamin Bloom", "website": "WWW.COLEGIOBLOOM.COM"}}, {"type": "way", "id": 727913981, "nodes": [6821345746, 6821345754, 6821345761, 6821345748, 6821345747, 6821345753, 6821345746], "tags": {"amenity": "school", "name": "Secondaria"}}, {"type": "way", "id": 727913983, "nodes": [6821345761, 6821345744, 6821345757, 6821345742, 6821345748, 6821345761], "tags": {"addr:postcode": "71980", "addr:street": "Camino a Puerto Angelito", "amenity": "school", "email": "consejodirectivo.prefecoac@gmail.com", "name": "Escuela Preparatoria Federal por Cooperaci\u00f3n Puerto Escondido"}}, {"type": "way", "id": 983549331, "nodes": [9093791492, 9093791487, 9093791484, 9093791480, 9093791510, 9093791505, 9093791492], "tags": {"amenity": "school"}}]}