{"version": 0.6, "generator": "Overpass API 0.7.62.7 375dc00a", "osm3s": {"timestamp_osm_base": "2025-07-07T02:10:57Z", "copyright": "The data included in this document is from www.openstreetmap.org. The data is made available under ODbL."}, "elements": [{"type": "node", "id": 5869745413, "lat": 17.336503, "lon": -96.257543, "tags": {"amenity": "hospital", "healthcare": "hospital", "healthcare:speciality": "general", "name": "Centro de Salud"}}, {"type": "node", "id": 9467726246, "lat": 17.0686794, "lon": -96.6727495, "tags": {"amenity": "hospital", "healthcare": "hospital", "name": "ESTACI\u00d3N ESTE"}}, {"type": "node", "id": 12410802575, "lat": 16.9571377, "lon": -96.5463307, "tags": {"addr:postcode": "70464", "addr:street": "Calle Matamoros", "amenity": "hospital", "healthcare": "hospital", "name": "Unidad M\u00e9dica Rural De San Juan Guelavia"}}, {"type": "node", "id": 12423317712, "lat": 16.9656151, "lon": -96.4763515, "tags": {"addr:city": "Oaxaca de Ju\u00e1rez", "addr:postcode": "70400", "addr:state": "Oax", "addr:street": "Carretera a Villa D\u00edaz Ordaz", "amenity": "hospital", "healthcare": "hospital", "name": "Hospital rural n\u00famero 36 IMSS bienestar", "phone": "9515620296"}}, {"type": "node", "id": 12442703071, "lat": 17.0611894, "lon": -96.6498313, "tags": {"addr:neighbourhood": "Camino del Rancho", "addr:postcode": "68279", "addr:street": "Camino del Rancho", "amenity": "hospital", "healthcare": "hospital", "name": "Centro De Salud Con Servicios Ampliados De Tlalixtac De Cabrera"}}]}