{"version": 0.6, "generator": "Overpass API 0.7.62.7 375dc00a", "osm3s": {"timestamp_osm_base": "2025-07-07T02:14:04Z", "copyright": "The data included in this document is from www.openstreetmap.org. The data is made available under ODbL."}, "elements": [{"type": "node", "id": 8148874496, "lat": 15.9726352, "lon": -96.7089735, "tags": {"amenity": "clinic", "healthcare": "clinic", "name": "Centro de Salud"}}, {"type": "node", "id": 12366263447, "lat": 15.861975, "lon": -97.0700502, "tags": {"addr:postcode": "71980", "addr:street": "Calle Segunda Poniente", "amenity": "clinic", "email": "SARI282005@HOTMAIL.COM", "healthcare": "clinic", "healthcare:speciality": "general", "name": "Consultorio de Medicina General"}}, {"type": "node", "id": 12366279870, "lat": 15.8611795, "lon": -97.0656668, "tags": {"addr:postcode": "71980", "addr:street": "Alfonso P\u00e9rez Gasga", "amenity": "clinic", "name": "Dispensario Medico"}}, {"type": "node", "id": 12366284668, "lat": 15.8597573, "lon": -97.0667968, "tags": {"addr:postcode": "71980", "addr:street": "Alfonso P\u00e9rez Gasga", "amenity": "clinic", "healthcare": "clinic", "name": "Modulo de Salud Marinero"}}, {"type": "node", "id": 12366330338, "lat": 15.8535054, "lon": -97.0550485, "tags": {"addr:street": "Andador las Olas", "amenity": "clinic", "healthcare": "clinic", "name": "Cl\u00ednica del Doctor Pepe", "phone": "9545820016", "postal_code": "70934"}}, {"type": "node", "id": 12366420905, "lat": 15.8775484, "lon": -97.0604214, "tags": {"addr:postcode": "70839", "addr:street": "Calle Congreso", "amenity": "clinic", "healthcare": "clinic", "name": "Casa de Salud"}}, {"type": "node", "id": 12366493387, "lat": 15.8816231, "lon": -97.0917081, "tags": {"addr:postcode": "71980", "amenity": "clinic", "healthcare": "clinic", "name": "Consultorio M\u00e9dico Eco Diagn\u00f3stico"}}, {"type": "node", "id": 12366508105, "lat": 15.863274, "lon": -97.0695251, "tags": {"addr:postcode": "71980", "addr:street": "Calle Primera Poniente", "amenity": "clinic", "healthcare": "clinic", "healthcare:speciality": "counselling", "name": "CIRUJANO GASTROENTEROLOGO", "phone": "954 111 5018"}}, {"type": "node", "id": 12366981673, "lat": 15.8234772, "lon": -97.0187234, "tags": {"addr:postcode": "70938", "amenity": "clinic", "healthcare": "clinic", "name": "Casa de Salud Barra de Navidad"}}, {"type": "node", "id": 12367013937, "lat": 15.8702841, "lon": -97.0587001, "tags": {"addr:postcode": "70934", "amenity": "clinic", "healthcare": "clinic", "name": "Casa de Salud Colonia Libertad"}}, {"type": "node", "id": 12368947623, "lat": 15.8652986, "lon": -97.072143, "tags": {"addr:postcode": "71980", "addr:street": "Calle Cuarta Norte", "amenity": "clinic", "healthcare": "clinic", "name": "Consultorio Particular Traumatolog\u00eda"}}, {"type": "node", "id": 12368961180, "lat": 15.8641066, "lon": -97.0696029, "tags": {"addr:postcode": "71980", "addr:street": "Calle Primera Poniente", "amenity": "clinic", "healthcare": "clinic", "name": "Sanatorio M\u00e9dico Mar\u00eda de Lourdes"}}, {"type": "node", "id": 12372595838, "lat": 15.8544821, "lon": -97.0562349, "tags": {"addr:city": "70934", "addr:street": "Calle del Morro", "amenity": "clinic", "healthcare": "clinic", "healthcare:speciality": "general", "name": "Ocean Clinik"}}, {"type": "node", "id": 12372608713, "lat": 15.8247577, "lon": -97.0225269, "tags": {"addr:city": "70938", "addr:street": "Carretera Costera", "amenity": "clinic", "healthcare": "clinic", "healthcare:speciality": "general", "name": "Consultorio M\u00e9dico Barra Medical Center", "phone": "9541117664"}}, {"type": "node", "id": 12372609071, "lat": 15.8627136, "lon": -97.0627826, "tags": {"addr:city": "70839", "addr:street": "BOULEVARD JOS\u00c9 MURAT", "amenity": "clinic", "healthcare": "clinic", "healthcare:speciality": "general", "name": "Consultorio M\u00e9dico", "phone": "9545820024"}}, {"type": "node", "id": 12373808983, "lat": 15.8734397, "lon": -96.9909498, "tags": {"addr:city": "Puerto Escondido", "addr:postcode": "70934", "addr:state": "Oax", "amenity": "clinic", "healthcare": "clinic", "name": "Casa de salud La Ceiba"}}, {"type": "node", "id": 12373825656, "lat": 15.8705631, "lon": -97.0739588, "tags": {"addr:city": "Puerto Escondido", "addr:postcode": "71980", "addr:state": "Oax", "addr:street": "Avenida Agua Marina", "amenity": "clinic", "healthcare": "clinic", "name": "Centro de Autismo Puerto Escondido"}}, {"type": "node", "id": 12374137070, "lat": 15.8660279, "lon": -97.0669432, "tags": {"addr:city": "Puerto Escondido", "addr:housenumber": "9545592239", "addr:postcode": "71984", "addr:street": "Calle Tercera Oriente", "amenity": "clinic", "healthcare": "clinic", "name": "Centro Integral de Salud"}}, {"type": "node", "id": 12374315713, "lat": 15.8595932, "lon": -97.0664276, "tags": {"addr:city": "Puerto Escondido", "addr:postcode": "71980", "addr:street": "Calle Marina Nacional", "amenity": "clinic", "healthcare": "clinic", "name": "Clinica Olvera Medical"}}, {"type": "node", "id": 12374559663, "lat": 15.858181, "lon": -97.046906, "tags": {"addr:city": "Brisas de Zicatela", "addr:postcode": "70934", "addr:state": "Oaxaca", "addr:street": "Calle Jos\u00e9 Azueta", "amenity": "clinic", "healthcare": "clinic", "name": "Consultorio M\u00e9dico", "operator": "Dra. Patricia"}}, {"type": "node", "id": 12374581945, "lat": 15.8657863, "lon": -97.0719798, "tags": {"addr:city": "Puerto Escondido", "addr:postcode": "71983", "addr:state": "Oax", "addr:street": "Calle Tercera Poniente", "amenity": "clinic", "email": "IBASAHEMODIALISIS@GMAIL.COM", "healthcare": "clinic", "name": "Clinica de HEMODIALISIS IBASA"}}, {"type": "node", "id": 12374599696, "lat": 15.8620675, "lon": -97.0753611, "tags": {"addr:postcode": "71983", "addr:street": "Boulevard Benito Ju\u00e1rez", "amenity": "clinic", "email": "SERRANOFRANC@GMAIL.COM", "name": "Consultorio Medico Francisco Serrano Severiano", "phone": "9541491337"}}, {"type": "node", "id": 12374599700, "lat": 15.8574079, "lon": -97.0715399, "tags": {"addr:postcode": "71980", "addr:street": "Privada Manzanillo", "amenity": "clinic", "email": "INFO@GOUTCLINIC.MX", "name": "MACMED"}}, {"type": "node", "id": 12374613126, "lat": 15.8796232, "lon": -96.9976238, "tags": {"addr:postcode": "70934", "amenity": "clinic", "healthcare": "clinic", "name": "Casa de Salud el Camar\u00f3n"}}, {"type": "node", "id": 12374623821, "lat": 15.8739337, "lon": -97.0723928, "tags": {"addr:postcode": "71980", "addr:street": "Calle Mar Caribe", "amenity": "clinic", "name": "Consultorio M\u00e9dico"}}, {"type": "node", "id": 12374630051, "lat": 15.8672426, "lon": -97.068339, "tags": {"addr:neighbourhood": "SEGUNDA ORIENTE", "addr:postcode": "71994", "addr:street": "QUINTA NORTE", "amenity": "clinic", "email": "C.PTOESCONDIDO@ISSSTE.GOB.MX", "healthcare": "clinic", "name": "ESPECIALIDADES Y QUIROFANO PUERTO ESCONDIDO", "phone": "9545821970"}}, {"type": "node", "id": 12374647464, "lat": 15.8684155, "lon": -97.0742445, "tags": {"addr:postcode": "71980", "addr:street": "Calle Cuarta Poniente", "amenity": "clinic", "email": "MAX_JARQUIN@YAHOO.COM.MX", "name": "Consultorio Medico Control de Peso", "phone": "9545592987"}}, {"type": "node", "id": 12374661544, "lat": 15.8702535, "lon": -97.0766056, "tags": {"addr:neighbourhood": "AGUA AZUL", "addr:postcode": "71980", "addr:street": "Avenida Agua Marina", "amenity": "clinic", "healthcare": "physiotherapist", "name": "TERACOUPY", "phone": "9541386656"}}, {"type": "node", "id": 12374669484, "lat": 15.8690801, "lon": -97.0743451, "tags": {"addr:neighbourhood": "AGUA ZARCA", "addr:postcode": "71980", "addr:street": "Calle Cuarta Poniente", "amenity": "clinic", "healthcare": "clinic", "name": "Consultorio M\u00e9dico", "phone": "9545440013"}}, {"type": "node", "id": 12374697352, "lat": 15.8268653, "lon": -97.0278258, "tags": {"addr:postcode": "70934", "addr:street": "Carretera Costera", "amenity": "clinic", "name": "Consultorio M\u00e9dico General", "phone": "9541141328"}}, {"type": "node", "id": 12374845265, "lat": 15.8692433, "lon": -97.0789101, "tags": {"addr:city": "Puerto Escondido", "addr:postcode": "71980", "addr:state": "Oax", "addr:street": "Calle Guayabos", "amenity": "clinic", "email": "UNIDADMEDICA@CILCO.COM.MX", "healthcare": "clinic", "name": "Unidad M\u00e9dica Especializada"}}, {"type": "node", "id": 12374847393, "lat": 15.8732299, "lon": -97.0728524, "tags": {"addr:city": "Puerto Escondido", "addr:postcode": "71980", "addr:state": "Oax", "addr:street": "Avenida Oaxaca", "amenity": "clinic", "healthcare": "clinic", "name": "Consultorio m\u00e9dico"}}, {"type": "node", "id": 12374869275, "lat": 15.8842206, "lon": -97.0793919, "tags": {"addr:postcode": "71980", "addr:street": "Calle Salinas de Gortari", "amenity": "clinic", "healthcare": "clinic", "name": "Consultorio M\u00e9dico del Doctor SIMI"}}, {"type": "node", "id": 12374908627, "lat": 15.8708426, "lon": -97.0794928, "tags": {"addr:postcode": "71980", "addr:street": "Av. Costa Chica", "amenity": "clinic", "healthcare": "psychotherapist", "name": "Centro de Estimulaci\u00f3n F\u00edsica Puerto Escondido"}}, {"type": "node", "id": 12374912856, "lat": 15.8645026, "lon": -97.0004515, "tags": {"addr:postcode": "70934", "addr:street": "Camino a Malucano", "amenity": "clinic", "healthcare": "clinic", "healthcare:speciality": "general", "name": "Casa de Salud"}}, {"type": "node", "id": 12374915244, "lat": 15.8602301, "lon": -97.067894, "tags": {"addr:city": "Puerto Escondido", "addr:postcode": "71980", "addr:state": "Oax", "addr:street": "P\u00e9rez Gazga", "amenity": "clinic", "healthcare": "clinic", "name": "Consultorio M\u00e9dico"}}, {"type": "node", "id": 12375011107, "lat": 15.8647116, "lon": -97.0709158, "tags": {"addr:postcode": "71980", "addr:street": "Calle Tercera Norte", "amenity": "clinic", "email": "porquetequieres.alineate@gmail.com", "healthcare": "clinic", "name": "Alineate Salud Y Bienestar", "phone": "9541335541"}}, {"type": "node", "id": 12375023248, "lat": 15.8702844, "lon": -97.0760845, "tags": {"addr:postcode": "71980", "addr:street": "Avenida Agua Marina", "amenity": "clinic", "healthcare": "clinic", "healthcare:speciality": "general", "name": "Consultorio Medico"}}, {"type": "node", "id": 12375035818, "lat": 15.884951, "lon": -97.0801024, "tags": {"addr:postcode": "71980", "addr:street": "Calle Guillermo Prieto", "amenity": "clinic", "healthcare": "clinic", "name": "Consultorio Medico y Farmacia Municipal"}}, {"type": "node", "id": 12375036487, "lat": 15.8367394, "lon": -97.0389815, "tags": {"addr:postcode": "70934", "addr:street": "Carretera Costera", "amenity": "clinic", "healthcare": "clinic", "name": "Centro de Salud de Zicatela"}}, {"type": "node", "id": 12375126584, "lat": 15.8621733, "lon": -97.0669601, "tags": {"addr:neighbourhood": "Oaxaca", "addr:postcode": "70839", "addr:street": "Primera Sur", "amenity": "clinic", "healthcare": "clinic", "name": "Fundaci\u00f3n Best Sucursal F1073 Directorio M\u00e9dico"}}, {"type": "node", "id": 12375133093, "lat": 15.8639773, "lon": -97.0701627, "tags": {"addr:neighbourhood": "Segunda Poniente", "addr:street": "Calle Segunda Norte", "amenity": "clinic", "email": "AMADOJVIRGEN@HOTMAIL.COM", "healthcare": "clinic", "name": "CONSULTORIO DE ULTRASONIDOS", "phone": "9541348653"}}, {"type": "node", "id": 12375172186, "lat": 15.8633875, "lon": -97.0702539, "tags": {"addr:postcode": "71980", "addr:street": "Calle Segunda Poniente", "amenity": "clinic", "healthcare": "clinic", "name": "Espacio de desarrollo integral pscic\u00f3loga", "phone": "9581168767"}}, {"type": "node", "id": 12375204713, "lat": 15.8629288, "lon": -97.0682358, "tags": {"addr:postcode": "71980", "addr:street": "Avenida Hidalgo", "amenity": "clinic", "healthcare": "clinic", "name": "Sanatorio del puerto", "phone": "9545821348"}}, {"type": "node", "id": 12376573084, "lat": 15.8626557, "lon": -97.070932, "tags": {"addr:city": "Puerto Escondido", "addr:postcode": "71980", "addr:state": "Oax", "addr:street": "Calle Tercera Poniente", "amenity": "clinic", "healthcare": "clinic", "healthcare:speciality": "depth", "name": "Servicios Integrales en Psicologia", "phone": "52+ 954 102 04 68"}}, {"type": "node", "id": 12376573196, "lat": 15.88112, "lon": -97.0784944, "tags": {"addr:city": "Puerto Escondido", "addr:postcode": "71980", "addr:state": "Oax", "addr:street": "Calle Mar Rojo", "amenity": "clinic", "healthcare": "clinic", "healthcare:speciality": "humanistic", "name": "Consultorio psicol\u00f3gico", "phone": "9541294122"}}, {"type": "node", "id": 12376589568, "lat": 15.865225, "lon": -97.0718265, "tags": {"addr:postcode": "71980", "addr:street": "Calle Tercera Poniente", "amenity": "clinic", "email": "oca@hotmail.com", "healthcare": "clinic", "healthcare:speciality": "radiology", "name": "Gabinete de Ultrasonograf\u00eda", "phone": "9545820965"}}, {"type": "node", "id": 12376627930, "lat": 15.8670024, "lon": -97.069954, "tags": {"addr:city": "Puerto Escondido", "addr:postcode": "71980", "addr:state": "Oax", "addr:street": "Avenida Oaxaca", "amenity": "clinic", "email": "mxlr2bte2001@hotmail.com", "healthcare": "clinic", "name": "Consultorio m\u00e9dico del Dr. Maximiliano L\u00f3pez Bustamante", "phone": "9545820440"}}, {"type": "node", "id": 12376692137, "lat": 15.8848917, "lon": -97.0263577, "tags": {"addr:postcode": "70934", "amenity": "clinic", "healthcare": "clinic", "healthcare:speciality": "general", "name": "Casa De Salud Loma Bonita"}}, {"type": "node", "id": 12376710224, "lat": 15.8633622, "lon": -97.0763218, "tags": {"addr:postcode": "71980", "addr:street": "Calle Puerto Escondido", "amenity": "clinic", "healthcare": "clinic", "name": "Centro De Salud Urbano De 6 N\u00facleos B\u00e1sicos"}}, {"type": "node", "id": 12376775309, "lat": 15.871626, "lon": -97.0811632, "tags": {"addr:city": "Puerto Escondido", "addr:postcode": "71980", "addr:state": "Oax", "addr:street": "Av. Costa Chica", "amenity": "clinic", "healthcare": "clinic", "name": "Consultorio Cuahut\u00e9moc Ledesma Dur\u00e1n"}}, {"type": "node", "id": 12377146861, "lat": 15.8698262, "lon": -97.080491, "tags": {"addr:neighbourhood": "Oseano Indico", "addr:postcode": "71980", "addr:street": "Calle Guayabos", "amenity": "clinic", "healthcare": "clinic", "name": "Consultorio Medico"}}, {"type": "node", "id": 12377531757, "lat": 15.8670501, "lon": -97.0681025, "tags": {"addr:neighbourhood": "CAFETALITO", "addr:postcode": "71980", "addr:street": "SEGUNDA ORIENTE", "amenity": "clinic", "email": "PEDLUISCARLOS@HOTMAIL.COM", "healthcare": "clinic", "name": "CLINICA DE ALERGIAS LUIS CARLOS", "phone": "9545822629"}}, {"type": "node", "id": 12377531768, "lat": 15.8630784, "lon": -97.0737416, "tags": {"addr:neighbourhood": "CAMINO CARRIZALILLO", "addr:postcode": "71980", "addr:street": "MORELOS", "amenity": "clinic", "email": "MARICARMENGROSS@HOTMAIL.COM", "healthcare": "clinic"}}, {"type": "node", "id": 12377648434, "lat": 15.8627926, "lon": -97.0684882, "tags": {"addr:city": "Puerto Escondido", "addr:neighbourhood": "Oaxaca", "addr:postcode": "71980", "addr:state": "Oax", "addr:street": "Avenida Hidalgo", "amenity": "clinic", "healthcare": "clinic", "name": "Consultorio M\u00e9dico Internista"}}, {"type": "node", "id": 12378901961, "lat": 15.868939, "lon": -97.0719048, "tags": {"addr:city": "Puerto Escondido", "addr:postcode": "71980", "addr:state": "Oax", "addr:street": "Calle Segunda Poniente", "amenity": "clinic", "healthcare": "clinic", "name": "Clin\u00edca n\u00famero 32 IMSS", "operator": "Instituto Mexicano del Seguro Social", "operator:en": "Mexican Social Security Institute", "operator:es": "Instituto Mexicano del Seguro Social", "operator:short": "IMSS", "operator:type": "government", "operator:wikidata": "Q904999"}}, {"type": "node", "id": 12381056826, "lat": 15.8380606, "lon": -97.0406927, "tags": {"addr:postcode": "70934", "addr:street": "Calle Chihuahua", "amenity": "clinic", "phone": "9541011517"}}, {"type": "node", "id": 12381080151, "lat": 15.853544, "lon": -97.0466678, "tags": {"addr:city": "Puerto Econdido", "addr:postcode": "70934", "addr:state": "Oax", "addr:street": "Calle Cadete Juan Escutia", "amenity": "clinic", "healthcare": "clinic", "name": "Centro de salud Colonia L\u00e1zaro C\u00e1rdenas"}}, {"type": "node", "id": 12381096540, "lat": 15.8634405, "lon": -97.0663418, "tags": {"addr:city": "Puerto Escondido", "addr:postcode": "71980", "addr:state": "Oax", "addr:street": "Calle Tercera Oriente", "amenity": "clinic", "email": "joaqui_608@hotmail.com", "healthcare": "clinic", "name": "Consultorio m\u00e9dico particular", "phone": "9541018416"}}, {"type": "node", "id": 12381142961, "lat": 15.918312, "lon": -97.0779432, "tags": {"addr:postcode": "70839", "amenity": "clinic", "healthcare": "clinic", "name": "Centro de Regeneraci\u00f3n Cristiana La Pe\u00f1a de ORB"}}, {"type": "node", "id": 12381157301, "lat": 15.8518134, "lon": -97.0495332, "tags": {"addr:postcode": "70934", "addr:street": "Calle Venustiano Carranza", "amenity": "clinic", "healthcare": "doctor", "name": "Consultorio M\u00e9dico", "phone": "9541031043"}}, {"type": "node", "id": 12392996783, "lat": 15.9181176, "lon": -97.0776021, "tags": {"addr:city": "Puerto Escondido", "addr:postcode": "70839", "addr:state": "Oax", "amenity": "clinic", "healthcare": "clinic", "name": "Casa de Salud Mandingas"}}, {"type": "node", "id": 12393048159, "lat": 15.8554981, "lon": -97.0304365, "tags": {"addr:postcode": "70934", "addr:state": "Oaxaca", "addr:street": "Rio la bomba", "amenity": "clinic", "healthcare": "clinic", "name": "Casa de Salud"}}, {"type": "node", "id": 12394865980, "lat": 15.8637317, "lon": -97.064427, "tags": {"addr:postcode": "71980", "addr:street": "Avenida Hidalgo", "amenity": "clinic", "healthcare": "clinic", "name": "Centro Integral de Terapias Hol\u00edsticas", "phone": "954 12 98 622"}}, {"type": "node", "id": 12394897629, "lat": 15.8627028, "lon": -97.0167997, "tags": {"addr:postcode": "70934", "amenity": "clinic", "healthcare": "clinic", "name": "Casa de Salud El Malucano"}}]}