{"version": 0.6, "generator": "Overpass API 0.7.62.7 375dc00a", "osm3s": {"timestamp_osm_base": "2025-07-07T02:14:04Z", "copyright": "The data included in this document is from www.openstreetmap.org. The data is made available under ODbL."}, "elements": [{"type": "node", "id": 11751893965, "lat": 17.8917339, "lon": -97.8261046}, {"type": "node", "id": 11751893966, "lat": 17.891732, "lon": -97.8259359}, {"type": "node", "id": 11751893967, "lat": 17.8916114, "lon": -97.8259374}, {"type": "node", "id": 11751893968, "lat": 17.8916132, "lon": -97.8261061}, {"type": "node", "id": 11751914869, "lat": 17.8916934, "lon": -97.8260192, "tags": {"amenity": "clinic", "healthcare": "clinic", "name": "IMSS", "operator": "IMSS", "operator:type": "public", "operator:wikidata": "Q904999"}}, {"type": "way", "id": 1265019602, "nodes": [11751893965, 11751893966, 11751893967, 11751893968, 11751893965], "tags": {"addr:city": "Zapotitl\u00e1n, Palmas", "addr:housenumber": "S/N", "addr:neighbourhood": "Centro", "addr:postcode": "69060", "addr:state": "Oaxaca", "addr:street": "Miguel de la Madrid", "amenity": "clinic", "building": "yes", "healthcare": "clinic", "name": "IMSS", "opening_hours": "Mo-Fr 08:00-16:00", "operator": "IMSS", "operator:type": "public", "operator:wikidata": "Q904999"}}]}