{"version": 0.6, "generator": "Overpass API 0.7.62.7 375dc00a", "osm3s": {"timestamp_osm_base": "2025-07-07T02:13:03Z", "copyright": "The data included in this document is from www.openstreetmap.org. The data is made available under ODbL."}, "elements": [{"type": "node", "id": 3702189262, "lat": 17.224327, "lon": -96.2480169, "tags": {"addr:city": "San Jeronimo Zoochina", "addr:housenumber": "s/n", "addr:street": "Domicilio conocido", "amenity": "clinic", "name": "Clinica", "opening_hours": "18:00-20:00"}}, {"type": "node", "id": 4591232390, "lat": 17.2668631, "lon": -96.4744477, "tags": {"amenity": "clinic", "name": "Centro de salud", "name:es": "Centro de salud"}}, {"type": "node", "id": 5504028047, "lat": 17.0667572, "lon": -96.6718098}, {"type": "node", "id": 5504028048, "lat": 17.0666951, "lon": -96.6715438}, {"type": "node", "id": 5504028049, "lat": 17.0669766, "lon": -96.6714719}, {"type": "node", "id": 5504028050, "lat": 17.0670387, "lon": -96.671738}, {"type": "node", "id": 5731473531, "lat": 16.9610864, "lon": -96.5839128}, {"type": "node", "id": 5731473532, "lat": 16.9611672, "lon": -96.5841772}, {"type": "node", "id": 5731473533, "lat": 16.9608998, "lon": -96.5842471}, {"type": "node", "id": 5731473534, "lat": 16.9608189, "lon": -96.5839749}, {"type": "node", "id": 5731475507, "lat": 16.9608361, "lon": -96.5840328}, {"type": "node", "id": 5804743685, "lat": 16.9611092, "lon": -96.5839977}, {"type": "node", "id": 5804743687, "lat": 16.9609878, "lon": -96.5839417}, {"type": "node", "id": 10749999214, "lat": 17.0512699, "lon": -96.6267864}, {"type": "node", "id": 10749999215, "lat": 17.051159, "lon": -96.6269943}, {"type": "node", "id": 10749999216, "lat": 17.0507481, "lon": -96.6267424}, {"type": "node", "id": 10749999217, "lat": 17.0503792, "lon": -96.6264585}, {"type": "node", "id": 12408410548, "lat": 16.9644079, "lon": -96.4747231, "tags": {"addr:postcode": "70400", "addr:street": "Calle Doctor Vera", "amenity": "clinic", "healthcare": "clinic", "name": "Clinica De Especialidades Del Valle"}}, {"type": "node", "id": 12413842692, "lat": 17.069454, "lon": -96.6514412, "tags": {"addr:city": "Oaxaca de Ju\u00e1rez", "addr:postcode": "68270", "addr:state": "Oax", "addr:street": "Calle Francisco I. Madero", "amenity": "clinic", "healthcare": "clinic", "name": "Consultorio m\u00e9dico", "phone": "9513095957"}}, {"type": "node", "id": 12414173868, "lat": 16.9514959, "lon": -96.614306, "tags": {"addr:postcode": "70426", "addr:street": "Calle Ni\u00f1o Artillero", "amenity": "clinic", "email": "umrteitipac@hotmail.com", "healthcare": "clinic", "name": "Unidad M\u00e9dica Rural N. 314"}}, {"type": "node", "id": 12414426483, "lat": 17.0161679, "lon": -96.5339322, "tags": {"addr:city": "Oaxaca de Ju\u00e1rez", "addr:postcode": "70461", "addr:state": "Oax", "addr:street": "Prolongaci\u00f3n de Francisco I. Madero", "amenity": "clinic", "email": "cs2nbmacuilxochitl@gmail.com", "healthcare": "clinic", "name": "Centro de salud de n\u00facleo b\u00e1sico"}}, {"type": "node", "id": 12414437772, "lat": 17.0108262, "lon": -96.5984412, "tags": {"addr:city": "Oaxaca de Ju\u00e1rez", "addr:postcode": "70424", "addr:state": "Oax", "addr:street": "Calle Morelos", "amenity": "clinic", "healthcare": "clinic", "name": "Centro de salud rural de un n\u00facleo b\u00e1sico"}}, {"type": "node", "id": 12416855199, "lat": 17.0513099, "lon": -96.6268721, "tags": {"addr:postcode": "68000", "addr:street": "Calle Cuajimoloyas", "amenity": "clinic", "healthcare": "clinic", "name": "Centro De Salud Fraccionamiento El Retiro"}}, {"type": "node", "id": 12423103296, "lat": 17.05853, "lon": -96.657954, "tags": {"addr:city": "Oaxaca de Ju\u00e1rez", "addr:postcode": "68270", "addr:state": "Oax", "addr:street": "Calzada Adolfo L\u00f3pez Mateos", "amenity": "clinic", "healthcare": "clinic", "name": "Consultorio m\u00e9dico"}}, {"type": "node", "id": 12431622985, "lat": 17.0290247, "lon": -96.6100962, "tags": {"addr:postcode": "70424", "addr:street": "Camino Nacional", "amenity": "clinic", "healthcare": "clinic", "healthcare:speciality": "general", "name": "Consultorio Medico El Pozito", "phone": "9514402706"}}, {"type": "node", "id": 12434775724, "lat": 17.0668556, "lon": -96.6484717, "tags": {"addr:postcode": "68270", "addr:street": "Calle Matamoros", "amenity": "clinic", "healthcare": "clinic", "name": "Consultorio M\u00e9dico Homeopatico Dr. Lee Nazul Zarate Valle", "phone": "951 29 37 61"}}, {"type": "node", "id": 12437677172, "lat": 17.0436211, "lon": -96.6304551, "tags": {"addr:postcode": "68297", "addr:street": "Camino de la Raya", "amenity": "clinic", "healthcare": "clinic", "name": "Unidad M\u00e9dica Rural Bienestar Santa Mar\u00eda Del Tule"}}, {"type": "node", "id": 12437955155, "lat": 17.0481305, "lon": -96.6270867, "tags": {"addr:postcode": "68044", "addr:street": "Avenida Sabinos", "amenity": "clinic", "healthcare": "clinic", "name": "Consulturio Medico Similares"}}, {"type": "node", "id": 12438005449, "lat": 17.0599941, "lon": -96.6759901, "tags": {"addr:postcode": "71320", "addr:street": "Calle Guerrero", "amenity": "clinic", "healthcare": "clinic", "name": "Centro De Salud Rural De San Sebasti\u00e1n Tutla"}}, {"type": "node", "id": 12438050349, "lat": 17.0607222, "lon": -96.6645792, "tags": {"addr:neighbourhood": "Camino Nacional", "addr:postcode": "71320", "addr:street": "Camino Nacional", "amenity": "clinic", "healthcare": "clinic", "name": "Consultorio Urologia"}}, {"type": "node", "id": 12438730187, "lat": 16.9609519, "lon": -96.5842797, "tags": {"addr:postcode": "70456", "addr:street": "Calle Jos\u00e9 C\u00e1rdenas", "amenity": "clinic", "healthcare": "clinic", "name": "Centro De Salud Rural De 1 Nucleo Basico Santa Cruz Papalutla"}}, {"type": "node", "id": 12440343927, "lat": 17.0727255, "lon": -96.6487542, "tags": {"addr:city": "Tlalixtac de Cabrera", "addr:postcode": "68270", "addr:state": "Oaxaca", "addr:street": "Calle Gregorio Ch\u00e1vez", "amenity": "clinic", "healthcare": "clinic", "name": "Consultorio Medico Similares"}}, {"type": "node", "id": 12446571131, "lat": 17.0089923, "lon": -96.5813379, "tags": {"addr:postcode": "70460", "addr:street": "Calle Reforma", "amenity": "clinic", "name": "Centro De Salud Rural De Nucleo Basico San Jer\u00f3nmimo Tlacochahuaya", "phone": "9515236469"}}, {"type": "node", "id": 12449712011, "lat": 17.0469777, "lon": -96.6362581, "tags": {"addr:postcode": "68297", "addr:street": "Avenida Sabino", "amenity": "clinic", "healthcare": "clinic", "healthcare:speciality": "dentist", "name": "Consultorio Dental", "phone": "9511779713"}}, {"type": "node", "id": 12449728136, "lat": 17.0077669, "lon": -96.6182061, "tags": {"addr:postcode": "70450", "addr:street": "Andador Porfirio D\u00edaz", "amenity": "clinic", "healthcare": "clinic", "name": "Centro De Salud"}}, {"type": "node", "id": 12450356791, "lat": 17.060236, "lon": -96.6247626, "tags": {"addr:city": "Santo Domingo Tomaltepec", "addr:postcode": "68293", "addr:state": "Oax", "addr:street": "Calle Constituci\u00f3n", "amenity": "clinic", "healthcare": "clinic", "name": "Centro De Salud Rural De Un Nucleo Basico Santo Domingo Tomaltepec"}}, {"type": "node", "id": 12450497824, "lat": 17.0073972, "lon": -96.5822372, "tags": {"addr:postcode": "70460", "addr:state": "Oaxaca", "addr:street": "Calle Independencia", "amenity": "clinic", "healthcare": "clinic", "name": "Consultorio Medico"}}, {"type": "node", "id": 12451511015, "lat": 17.0575893, "lon": -96.658831, "tags": {"addr:postcode": "68270", "amenity": "clinic", "healthcare": "clinic", "name": "Consultorio M\u00e9dico", "phone": "9512185326"}}, {"type": "node", "id": 12451561395, "lat": 17.0108084, "lon": -96.5994948, "tags": {"addr:city": "Oaxaca de Ju\u00e1rez", "addr:postcode": "70424", "addr:state": "Oax", "addr:street": "Calle Hidalgo", "amenity": "clinic", "healthcare": "clinic", "name": "Consultorios Medicos"}}, {"type": "node", "id": 12452438212, "lat": 17.0667023, "lon": -96.671666, "tags": {"addr:postcode": "68229", "addr:street": "Segunda Privada de Independencia", "amenity": "clinic", "name": "Servicio Centro De Salud De 2 Nucleos Basicos De San Francisco Tutla"}}, {"type": "node", "id": 12453356871, "lat": 17.0153651, "lon": -96.5413512, "tags": {"addr:postcode": "70460", "addr:street": "Calle Hidalgo", "amenity": "clinic", "healthcare": "clinic", "name": "Consultorio M\u00e9dico"}}, {"type": "node", "id": 12459701064, "lat": 16.9633506, "lon": -96.4764927, "tags": {"addr:city": "Oaxaca de Ju\u00e1rez", "addr:postcode": "70400", "addr:state": "Oax", "addr:street": "Carretera a Villa D\u00edaz Ordaz", "amenity": "clinic", "healthcare": "clinic", "phone": "9511282127"}}, {"type": "node", "id": 12459778150, "lat": 16.9559652, "lon": -96.544065, "tags": {"addr:postcode": "70464", "addr:street": "Calle del Arroyo", "amenity": "clinic", "email": "zacekkarma@hotmail.com", "healthcare": "clinic", "phone": "9511491610"}}, {"type": "node", "id": 12463613762, "lat": 17.0725411, "lon": -96.6472998, "tags": {"addr:postcode": "68270", "addr:street": "Calle Gregorio Ch\u00e1vez", "amenity": "clinic", "healthcare": "clinic", "name": "amenity=clinic"}}, {"type": "node", "id": 12463885046, "lat": 16.9634396, "lon": -96.4786129, "tags": {"addr:postcode": "70400", "addr:street": "Calle Honorable Ayuntamiento", "amenity": "clinic", "healthcare": "clinic", "phone": "9511609333"}}, {"type": "node", "id": 12464260517, "lat": 17.0793416, "lon": -96.6644664, "tags": {"addr:city": "Oaxaca de Ju\u00e1rez", "addr:postcode": "68290", "addr:state": "Oaxaca", "addr:street": "Calle Melchor Ocampo", "amenity": "clinic", "healthcare": "clinic", "name": "Consultorio m\u00e9dico"}}, {"type": "node", "id": 12467637985, "lat": 16.9560396, "lon": -96.5403633, "tags": {"addr:city": "Oaxaca de Ju\u00e1rez", "addr:postcode": "70464", "addr:state": "Oax", "addr:street": "Calle Abasolo", "amenity": "clinic", "healthcare": "clinic", "name": "Consultorio m\u00e9dico"}}, {"type": "node", "id": 12469380564, "lat": 17.0785038, "lon": -96.6635747, "tags": {"addr:postcode": "68290", "addr:street": "Carretera Federal Oaxaca - Tuxtepec", "amenity": "clinic", "healthcare": "clinic", "name": "Unidad Medica Diagnostica"}}, {"type": "node", "id": 12470390960, "lat": 17.081016, "lon": -96.6700053, "tags": {"addr:postcode": "68290", "addr:street": "Calle Agrarista", "amenity": "clinic", "healthcare": "clinic", "name": "Servicio Medico 1er Contacto"}}, {"type": "node", "id": 12470561910, "lat": 17.081016, "lon": -96.6700053, "tags": {"addr:neighbourhood": "Benito Juarez", "addr:postcode": "68290", "addr:street": "Calle Agrarista", "amenity": "clinic", "healthcare": "clinic", "name": "Servicio Medico 1er Contacto"}}, {"type": "node", "id": 12654293727, "lat": 17.0503569, "lon": -96.6263695}, {"type": "node", "id": 12654293728, "lat": 17.0505169, "lon": -96.6263376}, {"type": "node", "id": 12654293729, "lat": 17.0506544, "lon": -96.6263605}, {"type": "way", "id": 572925828, "nodes": [5504028050, 5504028049, 5504028048, 5504028047, 5504028050], "tags": {"amenity": "clinic", "healthcare": "clinic", "name": "Centro de Salud Sn. Francisco Tutla"}}, {"type": "way", "id": 603914591, "nodes": [5731473531, 5804743685, 5731473532, 5731473533, 5731475507, 5731473534, 5804743687, 5731473531], "tags": {"amenity": "clinic", "building": "yes", "healthcare": "clinic", "name": "Centro de Salud"}}, {"type": "way", "id": 1155958013, "nodes": [10749999214, 10749999215, 10749999216, 10749999217, 12654293727, 12654293728, 12654293729, 10749999214], "tags": {"addr:city": "Fracc el Retiro, Santa Maria del Tule", "addr:housenumber": "12", "addr:postcode": "68297", "addr:street": "Calle Cuajimoloyas", "amenity": "clinic", "building": "yes", "healthcare": "clinic", "name": "Centro de Salud N\u00b0 2 de la Unidad Habitacional El Retiro", "opening_hours": "Mo-Fr 08:00-16:00"}}]}