{"version": 0.6, "generator": "Overpass API 0.7.62.7 375dc00a", "osm3s": {"timestamp_osm_base": "2025-07-07T02:14:04Z", "copyright": "The data included in this document is from www.openstreetmap.org. The data is made available under ODbL."}, "elements": [{"type": "node", "id": 458626205, "lat": 17.5243519, "lon": -97.2834188, "tags": {"addr:city": "Santa Mar\u00eda Chachoapam", "addr:postcode": "69630", "addr:street": "Calle Miguel Hidalgo y Costilla", "amenity": "clinic", "healthcare": "clinic", "is_in": "Santa Mar\u00eda Chacho\u00e1pam, Oaxaca, M\u00e9xico", "name": "Unidad M\u00e9dica Rural IMSS"}}, {"type": "node", "id": 4444546260, "lat": 17.5252944, "lon": -97.3424653}, {"type": "node", "id": 4444546261, "lat": 17.5253144, "lon": -97.3422622}, {"type": "node", "id": 4444546262, "lat": 17.5250497, "lon": -97.3422336}, {"type": "node", "id": 4444546263, "lat": 17.5250297, "lon": -97.3424366}, {"type": "node", "id": 4444546265, "lat": 17.5251037, "lon": -97.3424446}, {"type": "node", "id": 11663400238, "lat": 17.5250322, "lon": -97.3424116}, {"type": "node", "id": 11663403009, "lat": 17.5251201, "lon": -97.3424464}, {"type": "node", "id": 12285615045, "lat": 17.654862, "lon": -97.2814118}, {"type": "node", "id": 12285615049, "lat": 17.6548792, "lon": -97.2815036}, {"type": "node", "id": 12285615050, "lat": 17.6547669, "lon": -97.2815203}, {"type": "node", "id": 12285615051, "lat": 17.6547528, "lon": -97.2814291}, {"type": "node", "id": 12912299430, "lat": 17.7509285, "lon": -97.4409773, "tags": {"addr:city": "San Miguel Tulancingo", "addr:housenumber": "s/n", "addr:neighbourhood": "Centro", "addr:postcode": "69370", "addr:state": "Oax.", "addr:street": "Calle Hidalgo", "amenity": "clinic", "emergency": "no", "healthcare": "clinic", "healthcare:speciality": "general;community;vaccination", "name": "Unidad Medica Rural N\u00fam. 32", "opening_hours": "lunes a viernes 09:00 a 16:00", "operator": "Instituto Mexicano del Seguro Social", "operator:en": "Mexican Social Security Institute", "operator:es": "Instituto Mexicano del Seguro Social", "operator:short": "IMSS", "operator:type": "government", "operator:wikidata": "Q904999", "wheelchair": "yes"}}, {"type": "way", "id": 447291670, "nodes": [4444546260, 4444546261, 4444546262, 11663400238, 4444546263, 4444546265, 11663403009, 4444546260], "tags": {"addr:city": "Santo Domingo Yanhuitl\u00e1n", "addr:housenumber": "S/n", "addr:postcode": "69660", "addr:street": "Hidalgo", "amenity": "clinic", "building": "yes", "healthcare": "clinic", "name": "Unidad Medica IMSS 81"}}, {"type": "way", "id": 1327887970, "nodes": [12285615049, 12285615050, 12285615051, 12285615045, 12285615049], "tags": {"amenity": "clinic", "building": "yes", "healthcare": "clinic"}}]}