{"version": 0.6, "generator": "Overpass API 0.7.62.7 375dc00a", "osm3s": {"timestamp_osm_base": "2025-07-07T02:15:06Z", "copyright": "The data included in this document is from www.openstreetmap.org. The data is made available under ODbL."}, "elements": [{"type": "node", "id": 11986169094, "lat": 18.51653, "lon": -96.5284171, "tags": {"bus": "yes", "highway": "bus_stop", "name": "Parada La Comisi\u00f3n", "public_transport": "platform"}}, {"type": "node", "id": 11986176789, "lat": 18.5674021, "lon": -96.6456954, "tags": {"bus": "yes", "highway": "bus_stop", "name": "Parada Rancho Los Reyes", "public_transport": "platform"}}, {"type": "node", "id": 11986176790, "lat": 18.5672713, "lon": -96.6457718, "tags": {"bus": "yes", "highway": "bus_stop", "name": "Parada Rancho Los Reyes", "public_transport": "platform"}}, {"type": "node", "id": 11986178347, "lat": 18.5864009, "lon": -96.6565395, "tags": {"bus": "yes", "highway": "bus_stop", "name": "Parada Refugio", "public_transport": "platform"}}, {"type": "node", "id": 11986179083, "lat": 18.5749907, "lon": -96.6531452, "tags": {"bus": "yes", "highway": "bus_stop", "name": "Parada Rancho Tablas", "public_transport": "platform"}}, {"type": "node", "id": 11986179084, "lat": 18.5745302, "lon": -96.6531371, "tags": {"bus": "yes", "highway": "bus_stop", "name": "Parada Rancho Tablas", "public_transport": "platform"}}, {"type": "node", "id": 11986197988, "lat": 18.5863226, "lon": -96.6567046, "tags": {"bus": "yes", "highway": "bus_stop", "name": "Parada Refugio", "public_transport": "platform"}}, {"type": "node", "id": 11986210852, "lat": 18.5513845, "lon": -96.6311693, "tags": {"bus": "yes", "highway": "bus_stop", "name": "Parada", "public_transport": "platform"}}, {"type": "node", "id": 11986210853, "lat": 18.5512183, "lon": -96.6312293, "tags": {"bus": "yes", "highway": "bus_stop", "name": "Parada", "public_transport": "platform"}}, {"type": "node", "id": 11986221125, "lat": 18.5580057, "lon": -96.6378961, "tags": {"bus": "yes", "highway": "bus_stop", "name": "Parada La Estrella", "public_transport": "platform"}}, {"type": "node", "id": 11986222289, "lat": 18.559091, "lon": -96.6387672, "tags": {"bus": "yes", "highway": "bus_stop", "name": "Parada La Estrella", "public_transport": "platform"}}, {"type": "node", "id": 11986222696, "lat": 18.5456079, "lon": -96.6254083, "tags": {"bus": "yes", "highway": "bus_stop", "name": "Parada El Nanche", "public_transport": "platform"}}, {"type": "node", "id": 11986222697, "lat": 18.5454254, "lon": -96.6252342, "tags": {"bus": "yes", "highway": "bus_stop", "name": "Parada El Nanche", "public_transport": "platform"}}, {"type": "node", "id": 11986225709, "lat": 18.5093001, "lon": -96.5705714, "tags": {"bus": "yes", "highway": "bus_stop", "name": "Parada Acerradero", "public_transport": "platform"}}, {"type": "node", "id": 11986225710, "lat": 18.5091071, "lon": -96.570671, "tags": {"bus": "yes", "highway": "bus_stop", "name": "Parada Acerradero", "public_transport": "platform"}}, {"type": "node", "id": 11986237578, "lat": 18.5081269, "lon": -96.5471289, "tags": {"bus": "yes", "highway": "bus_stop", "name": "Parada", "public_transport": "platform"}}, {"type": "node", "id": 11986308041, "lat": 18.5302691, "lon": -96.5894829, "tags": {"bus": "yes", "highway": "bus_stop", "name": "Parada Zona Urbana", "public_transport": "platform"}}, {"type": "node", "id": 11986311634, "lat": 18.4997977, "lon": -96.4881217, "tags": {"bus": "yes", "highway": "bus_stop", "name": "Parada El Porvenir", "public_transport": "platform"}}, {"type": "node", "id": 11986321065, "lat": 18.4938752, "lon": -96.4714982, "tags": {"bus": "yes", "highway": "bus_stop", "name": "Parada El Tamarindo", "public_transport": "platform"}}, {"type": "node", "id": 11986331015, "lat": 18.5059855, "lon": -96.4593785, "tags": {"bus": "yes", "highway": "bus_stop", "name": "Parada Tetela", "public_transport": "platform"}}, {"type": "node", "id": 11986336423, "lat": 18.5154854, "lon": -96.517551, "tags": {"bus": "yes", "highway": "bus_stop", "name": "Parada El Camalote", "public_transport": "platform"}}, {"type": "node", "id": 11986354855, "lat": 18.5234281, "lon": -96.4200515, "tags": {"bus": "yes", "highway": "bus_stop", "name": "Parada", "public_transport": "platform"}}]}