{"version": 0.6, "generator": "Overpass API 0.7.62.7 375dc00a", "osm3s": {"timestamp_osm_base": "2025-07-07T02:10:57Z", "copyright": "The data included in this document is from www.openstreetmap.org. The data is made available under ODbL."}, "elements": [{"type": "node", "id": 1677011351, "lat": 17.0745168, "lon": -96.7260115, "tags": {"amenity": "hospital", "designation": "Centro Oncologico", "emergency": "no", "name": "Centro de Oncologia y Radioterapia", "source": "Secretaria de Salud"}}, {"type": "node", "id": 1677030562, "lat": 17.0741578, "lon": -96.7260651, "tags": {"amenity": "hospital", "emergency": "no", "name": "Centro de Salud Urbano N\u00b0 2", "source": "Secretaria de Salud"}}, {"type": "node", "id": 3198057861, "lat": 17.0839763, "lon": -96.722167}, {"type": "node", "id": 3198057862, "lat": 17.0839776, "lon": -96.7221951}, {"type": "node", "id": 3198057863, "lat": 17.0837648, "lon": -96.7232895}, {"type": "node", "id": 3198057864, "lat": 17.0844852, "lon": -96.7220972}, {"type": "node", "id": 3198057865, "lat": 17.0847775, "lon": -96.7234236}, {"type": "node", "id": 3198057866, "lat": 17.0849595, "lon": -96.7232908}, {"type": "node", "id": 3198057961, "lat": 17.0835007, "lon": -96.7222475}, {"type": "node", "id": 3198057962, "lat": 17.0841994, "lon": -96.7240486}, {"type": "node", "id": 3198057963, "lat": 17.0844019, "lon": -96.7236878}, {"type": "node", "id": 3198058061, "lat": 17.0835674, "lon": -96.7228027}, {"type": "node", "id": 3198058062, "lat": 17.0839045, "lon": -96.7234129}, {"type": "node", "id": 3198058161, "lat": 17.0836981, "lon": -96.7227866}, {"type": "node", "id": 3198058162, "lat": 17.083925, "lon": -96.7235698}, {"type": "node", "id": 3198058163, "lat": 17.0840853, "lon": -96.7235644}, {"type": "node", "id": 3198058164, "lat": 17.0841545, "lon": -96.7235604}, {"type": "node", "id": 3201063963, "lat": 17.0818602, "lon": -96.7188372}, {"type": "node", "id": 3201072364, "lat": 17.0814924, "lon": -96.7179652}, {"type": "node", "id": 3201072366, "lat": 17.081907, "lon": -96.7186933}, {"type": "node", "id": 3201072368, "lat": 17.0820094, "lon": -96.7186229}, {"type": "node", "id": 3201072564, "lat": 17.0816147, "lon": -96.7188599}, {"type": "node", "id": 3201072965, "lat": 17.0821923, "lon": -96.7185796}, {"type": "node", "id": 3201072966, "lat": 17.0825022, "lon": -96.7177941}, {"type": "node", "id": 3201073561, "lat": 17.0825927, "lon": -96.7185185}, {"type": "node", "id": 3262574462, "lat": 17.0678344, "lon": -96.7219483}, {"type": "node", "id": 3262574563, "lat": 17.0682265, "lon": -96.7218887}, {"type": "node", "id": 3262574766, "lat": 17.0677634, "lon": -96.7214697}, {"type": "node", "id": 3262574965, "lat": 17.0679726, "lon": -96.7214357}, {"type": "node", "id": 3262575164, "lat": 17.0680084, "lon": -96.7218695}, {"type": "node", "id": 3262575165, "lat": 17.0682189, "lon": -96.721839}, {"type": "node", "id": 3262575761, "lat": 17.0679816, "lon": -96.7216755}, {"type": "node", "id": 3262575861, "lat": 17.0680076, "lon": -96.7216713}, {"type": "node", "id": 3265686866, "lat": 17.0559125, "lon": -96.724938}, {"type": "node", "id": 3265687080, "lat": 17.0557205, "lon": -96.7251832}, {"type": "node", "id": 3265688762, "lat": 17.0556747, "lon": -96.7249105}, {"type": "node", "id": 3265716762, "lat": 17.0559693, "lon": -96.7251857}, {"type": "node", "id": 3265717162, "lat": 17.0558768, "lon": -96.7248734}, {"type": "node", "id": 3265717361, "lat": 17.0558884, "lon": -96.7249424}, {"type": "node", "id": 3269893563, "lat": 17.078481, "lon": -96.7169364}, {"type": "node", "id": 3269894261, "lat": 17.0784986, "lon": -96.7170744}, {"type": "node", "id": 3269894461, "lat": 17.0786452, "lon": -96.7169136}, {"type": "node", "id": 3269894561, "lat": 17.0786628, "lon": -96.7170515}, {"type": "node", "id": 3409724794, "lat": 17.0643186, "lon": -96.7213363, "tags": {"addr:housenumber": "215", "addr:street": "Calle de Mariano Abasolo", "amenity": "hospital", "emergency": "yes", "name": "Hospital Carmen"}}, {"type": "node", "id": 3409725193, "lat": 17.0643352, "lon": -96.7214382, "tags": {"addr:city": "Oaxaca de Ju\u00e1rez", "addr:housenumber": "213", "addr:postcode": "68000", "addr:state": "Oaxaca", "addr:street": "Calle de Mariano Abasolo", "amenity": "hospital", "healthcare": "hospital", "name": "Clinica Hospital Carmen", "operator": "Hospital Carmen"}}, {"type": "node", "id": 3435135699, "lat": 17.064783, "lon": -96.7250569, "tags": {"addr:postcode": "68000", "addr:street": "Calle de Manuel Garc\u00eda Vigil", "amenity": "hospital", "emergency": "yes", "healthcare": "hospital", "name": "Hospital Molina"}}, {"type": "node", "id": 3438494593, "lat": 17.0632402, "lon": -96.7269443, "tags": {"amenity": "hospital", "emergency": "yes", "name": "\u00c1ngel Vasconcelos"}}, {"type": "node", "id": 3493935596, "lat": 17.0727086, "lon": -96.7201839}, {"type": "node", "id": 3493935597, "lat": 17.0728024, "lon": -96.7201813}, {"type": "node", "id": 3493935697, "lat": 17.0726933, "lon": -96.7202414}, {"type": "node", "id": 3493935699, "lat": 17.0729798, "lon": -96.7215496}, {"type": "node", "id": 3493937596, "lat": 17.0721713, "lon": -96.7216434}, {"type": "node", "id": 3493958395, "lat": 17.0720731, "lon": -96.7200807}, {"type": "node", "id": 3493958493, "lat": 17.0718476, "lon": -96.7202781}, {"type": "node", "id": 3493958593, "lat": 17.0720711, "lon": -96.7201492}, {"type": "node", "id": 3518461993, "lat": 17.070584, "lon": -96.7162579, "tags": {"amenity": "hospital", "emergency": "yes", "healthcare": "hospital", "name": "C\u00ednica Hospital M\u00e9dico Quir\u00fargica de Antequera"}}, {"type": "node", "id": 3595520994, "lat": 17.0743051, "lon": -96.71503}, {"type": "node", "id": 3595521194, "lat": 17.0740997, "lon": -96.7147971}, {"type": "node", "id": 3595521794, "lat": 17.0741195, "lon": -96.7150461}, {"type": "node", "id": 3595521795, "lat": 17.0742854, "lon": -96.714781}, {"type": "node", "id": 3933321162, "lat": 17.0782373, "lon": -96.7048294}, {"type": "node", "id": 3933366163, "lat": 17.0770717, "lon": -96.704165}, {"type": "node", "id": 3933366164, "lat": 17.077145, "lon": -96.704782}, {"type": "node", "id": 3933367058, "lat": 17.078171, "lon": -96.7042709}, {"type": "node", "id": 4439726796, "lat": 17.1069207, "lon": -96.7119708}, {"type": "node", "id": 4439780090, "lat": 17.1067351, "lon": -96.7120353}, {"type": "node", "id": 4439780091, "lat": 17.1067622, "lon": -96.7121754}, {"type": "node", "id": 4439780190, "lat": 17.106976, "lon": -96.7121377}, {"type": "node", "id": 4512745790, "lat": 17.0755019, "lon": -96.7182349, "tags": {"addr:city": "Oaxaca de Ju\u00e1rez", "addr:postcode": "68050", "addr:state": "Oaxaca", "addr:street": "Avenida Belisario Dom\u00ednguez", "amenity": "hospital", "email": "gerentegeneral@hospitalsanlucas.com", "healthcare": "hospital", "name": "Hospital San Lucas", "website": "https://www.hospitalsanlucas.com/"}}, {"type": "node", "id": 5446848835, "lat": 17.2820584, "lon": -96.8903453}, {"type": "node", "id": 5446848836, "lat": 17.2820788, "lon": -96.889833}, {"type": "node", "id": 5446848837, "lat": 17.2818483, "lon": -96.889833}, {"type": "node", "id": 5446848838, "lat": 17.2818304, "lon": -96.8903346}, {"type": "node", "id": 8173401951, "lat": 17.0680152, "lon": -96.72192}, {"type": "node", "id": 8173401952, "lat": 17.0679984, "lon": -96.721795}, {"type": "node", "id": 8173401956, "lat": 17.0678988, "lon": -96.7219371}, {"type": "node", "id": 8173402035, "lat": 17.0682221, "lon": -96.7218609, "tags": {"barrier": "gate"}}, {"type": "node", "id": 8178302656, "lat": 17.0838418, "lon": -96.72221}, {"type": "node", "id": 8178302660, "lat": 17.0843457, "lon": -96.7237879}, {"type": "node", "id": 8211671292, "lat": 17.1067425, "lon": -96.7120736}, {"type": "node", "id": 8231423695, "lat": 17.0557639, "lon": -96.7252237}, {"type": "node", "id": 8231423696, "lat": 17.055756, "lon": -96.7251766}, {"type": "node", "id": 8231423697, "lat": 17.0559489, "lon": -96.7250707}, {"type": "node", "id": 8231423698, "lat": 17.0559352, "lon": -96.7250732}, {"type": "node", "id": 8231423702, "lat": 17.0559198, "lon": -96.7251948}, {"type": "node", "id": 9467726245, "lat": 17.0618062, "lon": -96.7234424, "tags": {"amenity": "hospital", "healthcare": "hospital", "name": "ESTACI\u00d3N CENTRO"}}, {"type": "node", "id": 9467726247, "lat": 17.1005493, "lon": -96.7221673, "tags": {"amenity": "hospital", "healthcare": "hospital", "name": "ESTACI\u00d3N NORTE"}}, {"type": "node", "id": 9467726248, "lat": 17.0626675, "lon": -96.7886871, "tags": {"amenity": "hospital", "healthcare": "hospital", "name": "ESTACI\u00d3N OESTE"}}, {"type": "node", "id": 9467726249, "lat": 17.0129354, "lon": -96.7476516, "tags": {"amenity": "hospital", "healthcare": "hospital", "name": "ESTACI\u00d3N SUR"}}, {"type": "node", "id": 12414428234, "lat": 17.0622951, "lon": -96.7220932, "tags": {"addr:postcode": "68000", "addr:street": "Avenida de Jos\u00e9 Mar\u00eda Morelos", "amenity": "hospital", "email": "urmsgjuntosso@gmail.com", "healthcare": "hospital", "name": "Servicios De Salud De Oaxaca"}}, {"type": "node", "id": 12417387893, "lat": 17.0564322, "lon": -96.7246367}, {"type": "node", "id": 12417387894, "lat": 17.0564234, "lon": -96.7245845}, {"type": "node", "id": 12417387895, "lat": 17.0565605, "lon": -96.7245589}, {"type": "node", "id": 12417387896, "lat": 17.0565703, "lon": -96.7246101}, {"type": "node", "id": 12421937228, "lat": 17.1113106, "lon": -96.851573, "tags": {"addr:postcode": "68260", "amenity": "hospital", "healthcare": "hospital", "name": "Cl\u00ednica de Salud de San Felipe Tejalapam"}}, {"type": "node", "id": 12429519549, "lat": 17.1079955, "lon": -96.7647712, "tags": {"addr:postcode": "68285", "addr:street": "Calle Ram\u00f3n Rodr\u00edguez", "amenity": "hospital", "healthcare": "hospital", "name": "Centro De Salud Con Servicios Ampliados De San Jacinto Amilpas", "phone": "9511320058"}}, {"type": "node", "id": 12434675333, "lat": 17.0485205, "lon": -96.7311339, "tags": {"addr:postcode": "68150", "amenity": "hospital", "email": "hospitalsantaanitaoaxaca@hotmail.com", "healthcare": "hospital", "name": "Hospital Clinica Santa Anita", "phone": "+529515170680"}}, {"type": "node", "id": 12434900123, "lat": 17.0740821, "lon": -96.7149867, "tags": {"addr:postcode": "68050", "addr:street": "Calle Eucaliptos", "amenity": "hospital", "email": "hospital_delvalle@yahoo.com", "healthcare": "hospital", "name": "Hospital Del Valle Grupo Hmch", "phone": "9516066207"}}, {"type": "node", "id": 12434960898, "lat": 17.0815637, "lon": -96.7186292, "tags": {"addr:postcode": "68050", "addr:street": "Prolongaci\u00f3n de Avenida Fuerza \u00c1rea Mexicana", "amenity": "hospital", "email": "h_valdivieso@hotmail.com", "healthcare": "hospital", "name": "Hospital General Dr Aurelio Valdivieso", "phone": "9515153181"}}, {"type": "node", "id": 12437510571, "lat": 16.9962585, "lon": -96.7800554, "tags": {"addr:postcode": "71240", "addr:street": "Calle Francisco I. Madero", "amenity": "hospital", "healthcare": "hospital", "name": "Unidad De Salud Del Instituto Mexicano Del Seguro Social Oportunidades"}}, {"type": "node", "id": 12438097908, "lat": 17.0780783, "lon": -96.7168597, "tags": {"addr:neighbourhood": "Sabinos", "addr:postcode": "68050", "addr:street": "Calle Emiliano Zapata", "amenity": "hospital", "email": "medica2002subrogado@hotmail.com", "healthcare": "hospital", "name": "Medica 2002"}}, {"type": "node", "id": 12438776906, "lat": 17.0785426, "lon": -96.7169278}, {"type": "node", "id": 12438776907, "lat": 17.0785319, "lon": -96.7168997, "tags": {"addr:postcode": "68050", "addr:street": "Calle Emiliano Zapata", "amenity": "hospital", "email": "clinicamonserrat@hotmail.com", "healthcare": "hospital", "name": "Clinica Monserrat"}}, {"type": "node", "id": 12438819114, "lat": 17.0546222, "lon": -96.7271051, "tags": {"addr:postcode": "68000", "addr:street": "Calle de Flores Mag\u00f3n", "amenity": "hospital", "email": "hospitalcontabilidad@hotmail.com", "healthcare": "hospital", "name": "Hospital Biann San Jose", "website": "https://www.medicosenoaxaca.com/"}}, {"type": "node", "id": 12439486559, "lat": 17.0715058, "lon": -96.6993134, "tags": {"amenity": "hospital", "email": "denuncia_28@sedena.gob.mx", "healthcare": "hospital", "name": "Hospital Miltar de Zona de Ixcotel Oaxaca", "operator": "SEDENA", "operator:type": "government"}}, {"type": "node", "id": 12439708333, "lat": 17.0613325, "lon": -96.7427918, "tags": {"addr:postcode": "68140", "addr:street": "Calle Independencia", "amenity": "hospital", "name": "Clinica Hospital Del Pueblo Anna Seethaler Ac", "phone": "9515123752"}}, {"type": "node", "id": 12439916430, "lat": 17.0553375, "lon": -96.7089061, "tags": {"addr:city": "Oaxaca de Ju\u00e1rez", "addr:postcode": "68120", "addr:state": "Oax", "addr:street": "Prolongaci\u00f3n de Ray\u00f3n", "amenity": "hospital", "email": "submedicaoax@issste.gob.mx", "healthcare": "hospital", "name": "Subdelegaci\u00f3n m\u00e9dica del ISTE"}}, {"type": "node", "id": 12439979203, "lat": 17.059555, "lon": -96.7309831, "tags": {"addr:city": "Oaxaca de Ju\u00e1rez", "addr:postcode": "68000", "addr:state": "Oax", "addr:street": "Privada de Galeana", "amenity": "hospital", "email": "sanatorio_lasoledad@hotmail.com", "healthcare": "hospital", "name": "Sanatorio la Soledad"}}, {"type": "node", "id": 12442817424, "lat": 17.0741549, "lon": -96.7150766, "tags": {"addr:neighbourhood": "AMAPOLAS", "addr:postcode": "68050", "addr:street": "Calle Eucaliptos", "amenity": "hospital", "email": "hospital_delvalle@yahoo.com", "healthcare": "hospital", "name": "Hospital Del Valle"}}, {"type": "node", "id": 12445483302, "lat": 17.054977, "lon": -96.7182261, "tags": {"addr:city": "Oaxaca de Ju\u00e1rez", "addr:postcode": "68000", "addr:state": "Oax", "addr:street": "Calle de Cuauht\u00e9moc", "amenity": "hospital", "email": "drjajimenez@prodigy.net.mx", "healthcare": "hospital", "name": "Vesalius Centro Medico Quirurgico", "phone": "9515148909"}}, {"type": "node", "id": 12446362542, "lat": 17.0633334, "lon": -96.7272045, "tags": {"addr:postcode": "68000", "addr:street": "Avenida de Jos\u00e9 Mar\u00eda Morelos", "amenity": "hospital", "email": "fpvasconcelos11@hotmail.com", "name": "Hospital Fundacion Padre Angel Vasconcelos"}}, {"type": "node", "id": 12451284613, "lat": 17.0711888, "lon": -96.7102238, "tags": {"addr:postcode": "68050", "addr:street": "Calle Brasil", "amenity": "hospital", "email": "betesda@prodigy.net.mx", "name": "Clinica Hospital Betesda", "phone": "9515138454"}}, {"type": "node", "id": 12453222794, "lat": 17.0462325, "lon": -96.7196162, "tags": {"addr:postcode": "68130", "addr:street": "Privada Tacubaya", "amenity": "hospital", "emergency": "yes", "healthcare": "hospital", "name": "Unidad Medico Urbana"}}, {"type": "node", "id": 12453344058, "lat": 17.0564096, "lon": -96.7246775, "tags": {"addr:neighbourhood": "Arteaga", "addr:postcode": "68000", "addr:street": "Calle de Armenta y L\u00f3pez", "amenity": "hospital", "email": "farmaciachum@outlook.com", "healthcare": "hospital", "name": "Clinica Hospital De Urgencias Medicas"}}, {"type": "node", "id": 12453613301, "lat": 17.0490205, "lon": -96.7314558, "tags": {"addr:postcode": "68150", "addr:street": "Carretera Oaxaca-Zimatl\u00e1n de \u00c1lvarez", "amenity": "hospital", "email": "clinica_hospital_juquilita@hotmail.com", "healthcare": "hospital", "name": "Cl\u00ednica Hospital Juquilita", "phone": "9515170620"}}, {"type": "node", "id": 12453754690, "lat": 17.0762743, "lon": -96.7117117, "tags": {"addr:postcode": "68050", "addr:street": "Calle Dalias", "amenity": "hospital", "healthcare": "hospital", "name": "Clinica Hospital Centro Medico Del Sureste", "phone": "9511600971"}}, {"type": "node", "id": 12453796768, "lat": 16.9938743, "lon": -96.7136483, "tags": {"addr:postcode": "71244", "addr:street": "Calzada L\u00e1zaro C\u00e1rdenas", "amenity": "hospital", "healthcare": "hospital", "name": "Unidad M\u00e9dica Rural 209 \u00c1nimas Trujano"}}, {"type": "node", "id": 12459645443, "lat": 17.0632997, "lon": -96.6942101, "tags": {"addr:city": "Santa Luc\u00eda del Camino", "addr:postcode": "71244", "addr:state": "Oax", "addr:street": "Avenida del Trabajo", "amenity": "hospital", "healthcare": "hospital", "name": "Clinica Municipal Sta. Luc\u00eda Del Camino"}}, {"type": "node", "id": 12463616210, "lat": 17.0506006, "lon": -96.726661, "tags": {"addr:postcode": "68120", "addr:street": "Boulevard Eduardo Mata", "amenity": "hospital", "emergency": "no", "healthcare": "hospital", "name": "Clinica Hospital Del Sol"}}, {"type": "node", "id": 12463766134, "lat": 17.0720169, "lon": -96.7210175, "tags": {"addr:postcode": "68000", "addr:street": "Calzada Ni\u00f1os H\u00e9roes de Chapultepec", "amenity": "hospital", "contact:email": "maria.pantojal@imss.gob.mx", "name": "Hospital Del Seguro Social"}}, {"type": "node", "id": 12463995248, "lat": 17.0802785, "lon": -96.7160463, "tags": {"addr:postcode": "68050", "addr:street": "Calle \u00c1lamos", "amenity": "hospital", "email": "cgsat.sso@gmail.com", "healthcare": "hospital", "name": "Servicios De Salud Del Estado De Oaxaca", "website": "www.salud.oaxaca.gob.mx"}}, {"type": "node", "id": 12464155087, "lat": 17.0613397, "lon": -96.7390389, "tags": {"addr:city": "Oaxaca de Ju\u00e1rez", "addr:postcode": "68140", "addr:state": "Oax", "addr:street": "Calzada Valerio Trujano", "amenity": "hospital", "email": "sohetonius@hotmail.com", "healthcare": "hospital", "name": "Hospital San Martin Caballero", "phone": "+529515120751"}}, {"type": "node", "id": 12464244255, "lat": 17.0664575, "lon": -96.6824426, "tags": {"addr:city": "Oaxaca de Ju\u00e1rez", "addr:postcode": "71246", "addr:state": "Oax", "addr:street": "Privada Arias", "amenity": "hospital", "email": "clinikpanam@hotmail.com", "healthcare": "hospital", "name": "Cl\u00ednica Panamericana"}}, {"type": "node", "id": 12465770430, "lat": 17.0145829, "lon": -96.7457946, "tags": {"addr:city": "Oaxaca de Ju\u00e1rez", "addr:postcode": "71230", "addr:state": "Oax", "addr:street": "Calle Guillermo A. Varela", "amenity": "hospital", "healthcare": "hospital", "name": "Unidad m\u00e9dica municipal"}}, {"type": "node", "id": 12466112990, "lat": 17.0704769, "lon": -96.736552, "tags": {"addr:postcode": "68000", "addr:street": "Calle Ni\u00f1os H\u00e9roes", "amenity": "hospital", "email": "santamariaclinicahospital@hotmail.com", "healthcare": "hospital", "name": "Cl\u00ednica Hospital Santa Mar\u00eda", "phone": "9515163924"}}, {"type": "node", "id": 12466296848, "lat": 17.0782384, "lon": -96.7166758, "tags": {"addr:city": "Oaxaca de Ju\u00e1rez", "addr:postcode": "68050", "addr:state": "Oax", "addr:street": "Calle Emiliano Zapata", "amenity": "hospital", "email": "medicasubrogadoclinica2002@hotmail.com", "healthcare": "hospital", "name": "Medica 2002", "phone": "+529515157200", "website": "https://www.medica2002.com/"}}, {"type": "node", "id": 12468188672, "lat": 17.0745703, "lon": -96.7262743, "tags": {"addr:neighbourhood": "Venus", "addr:postcode": "68040", "addr:street": "Calle Doctor Jorge P\u00e9rez Guerrero", "amenity": "hospital", "healthcare": "hospital", "name": "Servicios De Salud De Oaxaca Centro Estatal De Oncologia y Radio Terapia"}}, {"type": "node", "id": 12470392002, "lat": 17.153648, "lon": -96.7894842, "tags": {"addr:city": "Santiago Etla", "addr:postcode": "68253", "addr:state": "Oax", "addr:street": "Calle Francisco Villa", "amenity": "hospital", "healthcare": "hospital", "name": "Unidad m\u00e9dica rural 110"}}, {"type": "node", "id": 12470448171, "lat": 16.992594, "lon": -96.7559282, "tags": {"addr:street": "71280", "amenity": "hospital", "email": "zelma.teodori@fucam.org.mx", "healthcare": "hospital", "name": "Fucam", "website": "www.fucam.org.mx"}}, {"type": "way", "id": 313775896, "nodes": [3198057864, 3198057861, 3198057862, 8178302656, 3198057961, 3198058061, 3198058161, 3198057863, 3198058062, 3198058162, 3198058163, 3198058164, 3198057962, 8178302660, 3198057963, 3198057865, 3198057866, 3198057864], "tags": {"addr:city": "Oaxaca de Ju\u00e1rez", "addr:postcode": "68040", "addr:state": "Oaxaca", "addr:street": "Marcos P\u00e9rez", "amenity": "hospital", "emergency": "yes", "loc_name": "Hospital ISSSTE Oaxaca", "name": "Hospital regional Presidente Ju\u00e1rez ISSSTE", "phone": "9515153500", "source": "local_knowledge;bing"}}, {"type": "way", "id": 314067966, "nodes": [3201073561, 3201072966, 3201072364, 3201072564, 3201063963, 3201072366, 3201072368, 3201072965, 3201073561], "tags": {"amenity": "hospital", "check_date": "2024-07-20", "emergency": "yes", "healthcare": "hospital", "name": "Hospital Civil / Dr. Aurelio Valdivieso", "source": "local_knowledge;bing"}}, {"type": "way", "id": 319796762, "nodes": [3262574766, 3262574965, 3262575861, 3262575761, 8173401952, 3262575164, 3262575165, 8173402035, 3262574563, 8173401951, 8173401956, 3262574462, 3262574766], "tags": {"addr:housenumber": "615", "addr:street": "Calle de la Reforma", "amenity": "hospital", "emergency": "yes", "healthcare": "hospital", "name": "Hospital Reforma"}}, {"type": "way", "id": 320073442, "nodes": [3265716762, 8231423702, 8231423695, 8231423696, 3265687080, 3265688762, 3265717162, 3265717361, 3265686866, 8231423698, 8231423697, 3265716762], "tags": {"addr:city": "Oaxaca de Ju\u00e1rez", "addr:postcode": "68000", "addr:state": "Oaxaca", "addr:street": "Calle de Armenta y L\u00f3pez", "alt_name": "Cruz Roja Mexicana Institucion de Asistencia Privada", "amenity": "hospital", "building": "yes", "emergency": "yes", "healthcare": "hospital", "name": "Cruz Roja Mexicana", "operator": "Delegaci\u00f3n Oaxaca", "website": "http://oaxaca.cruzrojamexicana.org.mx/"}}, {"type": "way", "id": 320468963, "nodes": [3269894261, 3269893563, 12438776906, 3269894461, 3269894561, 3269894261], "tags": {"addr:housename": "315", "addr:street": "Emiliano Zapata", "amenity": "hospital", "building": "yes", "building:levels": "4", "contact:phone": "+52 951 51 5 52 63", "emergency": "yes", "healthcare": "hospital", "name": "Monserrat"}}, {"type": "way", "id": 342388779, "nodes": [3493935699, 3493935597, 3493935596, 3493935697, 3493958395, 3493958593, 3493958493, 3493937596, 3493935699], "tags": {"amenity": "hospital", "emergency": "yes", "name": "Hospital General de Zona No. 1 \"Dr. Demetrio Mayoral Pardo\"", "operator": "IMSS", "short_name": "IMSS Reforma"}}, {"type": "way", "id": 353735854, "nodes": [3595521795, 3595520994, 3595521794, 3595521194, 3595521795], "tags": {"addr:housenumber": "401", "addr:street": "Eucaliptos", "amenity": "hospital", "building": "yes", "building:levels": "4", "emergency": "yes", "name": "Hospital del Valle"}}, {"type": "way", "id": 390173889, "nodes": [3933321162, 3933366164, 3933366163, 3933367058, 3933321162], "tags": {"addr:city": "Oaxaca de Ju\u00e1rez", "addr:postcode": "68050", "addr:state": "Oax", "addr:street": "Calle \u00c1lamos", "amenity": "hospital", "healthcare": "hospital", "name": "Unidad de medicina familiar No. 65"}}, {"type": "way", "id": 446738421, "nodes": [4439780091, 8211671292, 4439780090, 4439726796, 4439780190, 4439780091], "tags": {"amenity": "hospital", "building": "yes", "healthcare": "hospital", "healthcare:speciality": "general", "name": "Centro de Salud \"San Felipe del Agua\"", "operator": "Secretar\u00eda de Salud", "operator:type": "government"}}, {"type": "way", "id": 565581242, "nodes": [5446848835, 5446848836, 5446848837, 5446848838, 5446848835], "tags": {"amenity": "hospital", "healthcare": "hospital", "name": "Centro de Salud San Pablo Huitzo"}}, {"type": "way", "id": 1342263762, "nodes": [12417387893, 12417387894, 12417387895, 12417387896, 12417387893], "tags": {"addr:city": "Oaxaca de Ju\u00e1rez", "addr:postcode": "68000", "addr:state": "Oax", "addr:street": "Calle de Armenta y L\u00f3pez", "amenity": "hospital", "healthcare": "hospital", "name": "Cl\u00ednica hospital de urgencias m\u00e9dicas", "opening_hours": "Mo-Sa 09:00-14:30", "operator": "Victor Manuel Flores Carrillo"}}]}