{"version": 0.6, "generator": "Overpass API 0.7.62.7 375dc00a", "osm3s": {"timestamp_osm_base": "2025-07-07T02:14:04Z", "copyright": "The data included in this document is from www.openstreetmap.org. The data is made available under ODbL."}, "elements": [{"type": "node", "id": 4477482991, "lat": 16.4738926, "lon": -95.0354361, "tags": {"amenity": "clinic", "name": "Cl\u00ednica EQGI", "name:en": "Medical clinic (hospital)", "name:es": "Cl\u00ednica EQGI"}}, {"type": "node", "id": 4992716430, "lat": 16.2075188, "lon": -95.2042642, "tags": {"amenity": "clinic", "name": "IMSS", "name:es": "IMSS"}}, {"type": "node", "id": 5104018950, "lat": 16.1804544, "lon": -95.1993316}, {"type": "node", "id": 5104018951, "lat": 16.1802972, "lon": -95.1992759}, {"type": "node", "id": 5104018952, "lat": 16.1803812, "lon": -95.1990189}, {"type": "node", "id": 5104018953, "lat": 16.1805383, "lon": -95.1990746}, {"type": "node", "id": 5104036539, "lat": 16.1800599, "lon": -95.1955001}, {"type": "node", "id": 5104036540, "lat": 16.1798701, "lon": -95.1954278}, {"type": "node", "id": 5104036541, "lat": 16.1799682, "lon": -95.1951486}, {"type": "node", "id": 5104036542, "lat": 16.1801393, "lon": -95.1952138}, {"type": "node", "id": 5113377563, "lat": 16.3344589, "lon": -95.2320127}, {"type": "node", "id": 5113377564, "lat": 16.3344532, "lon": -95.2319357}, {"type": "node", "id": 5113377565, "lat": 16.3342527, "lon": -95.2319517}, {"type": "node", "id": 5113377566, "lat": 16.3342584, "lon": -95.2320287}, {"type": "node", "id": 5122092166, "lat": 16.2034259, "lon": -95.1901465}, {"type": "node", "id": 5122092167, "lat": 16.203245, "lon": -95.1901463}, {"type": "node", "id": 5122092168, "lat": 16.2034255, "lon": -95.1902419}, {"type": "node", "id": 5122092169, "lat": 16.2032446, "lon": -95.1902412}, {"type": "node", "id": 5136143724, "lat": 16.2029781, "lon": -95.1975522}, {"type": "node", "id": 5136143783, "lat": 16.2029999, "lon": -95.1974784}, {"type": "node", "id": 5136143854, "lat": 16.2029047, "lon": -95.1974461}, {"type": "node", "id": 5136143874, "lat": 16.2028814, "lon": -95.1975212}, {"type": "node", "id": 5153210397, "lat": 16.179872, "lon": -95.1953184}, {"type": "node", "id": 5153210398, "lat": 16.1798989, "lon": -95.1952416}, {"type": "node", "id": 5153210399, "lat": 16.1799312, "lon": -95.1952539}, {"type": "node", "id": 5153210400, "lat": 16.1799042, "lon": -95.1953306}, {"type": "node", "id": 5153210401, "lat": 16.1800999, "lon": -95.1953862}, {"type": "node", "id": 5153210402, "lat": 16.1800813, "lon": -95.1953791}, {"type": "node", "id": 5154372113, "lat": 16.1818844, "lon": -95.193686}, {"type": "node", "id": 5154372114, "lat": 16.1817215, "lon": -95.1936202}, {"type": "node", "id": 5154372115, "lat": 16.1817559, "lon": -95.1935215}, {"type": "node", "id": 5154372116, "lat": 16.1819212, "lon": -95.1935847}, {"type": "node", "id": 5154684421, "lat": 16.1847268, "lon": -95.1962529}, {"type": "node", "id": 5154684422, "lat": 16.1846141, "lon": -95.196212}, {"type": "node", "id": 5154684423, "lat": 16.184589, "lon": -95.1962871}, {"type": "node", "id": 5154684424, "lat": 16.1847017, "lon": -95.196328}, {"type": "node", "id": 8437214404, "lat": 16.1799523, "lon": -95.1951921}, {"type": "node", "id": 12383402790, "lat": 16.1785717, "lon": -95.1989451, "tags": {"addr:postcode": "70660", "addr:street": "Calle Manzanillo", "amenity": "clinic", "email": "lofiro66@hotmail.com", "healthcare": "clinic", "name": "Consultorio de Ultrasonido"}}, {"type": "node", "id": 12383508976, "lat": 16.2090506, "lon": -95.2046852, "tags": {"addr:postcode": "70612", "addr:street": "Carretera Super Trans\u00edstmica", "amenity": "clinic", "healthcare": "clinic", "name": "Centro Medico Especializado"}}, {"type": "node", "id": 12385117788, "lat": 16.2074756, "lon": -95.2051888, "tags": {"addr:city": "Salina Cruz", "addr:postcode": "70610", "addr:state": "Oax", "addr:street": "Calle Puebla", "amenity": "clinic", "healthcare": "clinic", "name": "Clinica Maternal Adehumi", "wheelchair": "yes"}}, {"type": "node", "id": 12385147476, "lat": 16.2031076, "lon": -95.1936579, "tags": {"addr:postcode": "70620", "addr:street": "Calle 42", "amenity": "clinic", "contact:phone": "9711370050", "name": "Consultorio M\u00e9dico"}}, {"type": "node", "id": 12385161696, "lat": 16.1800387, "lon": -95.1955032, "tags": {"addr:city": "Salina Cruz", "addr:postcode": "70600", "addr:state": "Oax", "addr:street": "Avenida Tampico", "amenity": "clinic", "healthcare": "clinic", "healthcare:speciality": "ophthalmology;internal", "name": "Consultorio M\u00e9dico de Cirugia General"}}, {"type": "node", "id": 12385182193, "lat": 16.1981512, "lon": -95.2035924, "tags": {"addr:city": "Salina Cruz", "addr:postcode": "70630", "addr:state": "Oaxaca", "addr:street": "Pensador Mexicano", "amenity": "clinic", "healthcare": "clinic", "name": "Consultorio y Urgencias Medicas", "phone": "+529711328480", "wheelchair": "yes"}}, {"type": "node", "id": 12385214697, "lat": 16.1856799, "lon": -95.1993603, "tags": {"addr:postcode": "70650", "addr:street": "Calle Constancia", "amenity": "clinic", "contact:email": "jgallegosm58@hotmail.com", "healthcare": "clinic", "name": "Consultorio Medico", "phone": "9717140404"}}, {"type": "node", "id": 12385341842, "lat": 16.172819, "lon": -95.1909402, "tags": {"addr:city": "Salina Cruz", "addr:neighbourhood": "GENERAL MANUEL \u00c1VILA CAMACHO", "addr:postcode": "70680", "addr:state": "Oax", "addr:street": "Calle Pac\u00edfico", "amenity": "clinic", "email": "dr_omar_th@hotmail.com", "healthcare": "clinic", "name": "Gabinete De Ultrasonido Del Dr Vizcaya", "phone": "9711424408"}}, {"type": "node", "id": 12385345921, "lat": 16.1807685, "lon": -95.1932485, "tags": {"addr:city": "Salina Cruz", "addr:postcode": "70670", "addr:state": "Oax", "addr:street": "Avenida 5 de Mayo", "amenity": "clinic", "healthcare": "clinic", "name": "Consultorio m\u00e9dico en general", "phone": "9712205208"}}, {"type": "node", "id": 12385405211, "lat": 16.1727234, "lon": -95.1897779, "tags": {"addr:city": "Salina Cruz", "addr:postcode": "70680", "addr:state": "Oax", "addr:street": "H\u00e9roes de la Marina", "amenity": "clinic", "healthcare": "clinic", "healthcare:speciality": "urology", "name": "CLICE", "operator": "Dr. Uriel Flavio Cruz Ojeda", "phone": "9717202079"}}, {"type": "node", "id": 12385444525, "lat": 16.2039916, "lon": -95.1983549, "tags": {"addr:city": "Salina Cruz", "addr:postcode": "70610", "addr:state": "Oaxaca", "addr:street": "Venustiano Carranza", "amenity": "clinic", "healthcare": "clinic", "name": "Medicina Fisica y Rehabilitacion", "phone": "9711164964"}}, {"type": "node", "id": 12385473507, "lat": 16.2127275, "lon": -95.2106, "tags": {"addr:city": "Salina Cruz", "addr:postcode": "70610", "addr:state": "Oax", "addr:street": "Benito Ju\u00e1rez", "amenity": "clinic", "healthcare": "clinic", "healthcare:speciality": "paediatrics", "name": "Benito Ju\u00e1rez", "operator": "Dr. Jos\u00e9 H. Castro Oropeza", "operator:type": "private", "phone": "7162015"}}, {"type": "node", "id": 12385642755, "lat": 16.2029577, "lon": -95.1973569, "tags": {"addr:street": "Calle Nicol\u00e1s Bravo", "amenity": "clinic", "healthcare": "clinic", "phone": "9711075463"}}, {"type": "node", "id": 12387348903, "lat": 16.1735949, "lon": -95.1907525, "tags": {"addr:postcode": "70670", "addr:street": "Avenida 5 de Mayo", "amenity": "clinic", "healthcare": "clinic", "name": "Consultorio M\u00e9dico Traumat\u00f3logo Ortopedista"}}, {"type": "node", "id": 12388758571, "lat": 16.171624, "lon": -95.1909661, "tags": {"addr:postcode": "70680", "addr:street": "Miramar", "amenity": "clinic", "healthcare": "clinic", "name": "Cl\u00ednica Integral de Especialidades M\u00e9dicas"}}, {"type": "node", "id": 12388767409, "lat": 16.1746194, "lon": -95.1909341, "tags": {"addr:city": "Salina Cruz", "addr:neighbourhood": "COATZACOALCOS", "addr:postcode": "70670", "addr:state": "Oax", "addr:street": "Avenida 5 de Mayo", "amenity": "clinic", "email": "jvillalobosmtez@yahoo.com", "healthcare": "dentist", "name": "Consultorio Dentaly", "phone": "9711034614"}}, {"type": "node", "id": 12388771323, "lat": 16.1746741, "lon": -95.1932353, "tags": {"addr:neighbourhood": "Av. Tampico", "addr:postcode": "70600", "addr:street": "Calle Coatzacoalcos", "amenity": "clinic", "healthcare": "clinic", "name": "Consultorios de Medicina Especializada del Sector Privado"}}, {"type": "node", "id": 12389095693, "lat": 16.1879182, "lon": -95.2034872, "tags": {"addr:postcode": "70650", "addr:street": "Oleoducto", "amenity": "clinic", "healthcare": "clinic", "name": "Dispensario M\u00e9dico"}}, {"type": "node", "id": 12389126718, "lat": 16.1859783, "lon": -95.196752, "tags": {"addr:postcode": "70650", "addr:street": "Avenida Manuel \u00c1vila Camacho", "amenity": "clinic", "healthcare": "clinic", "name": "Consultorio Dermatol\u00f3gico"}}, {"type": "node", "id": 12389161056, "lat": 16.1735045, "lon": -95.1907289, "tags": {"addr:postcode": "70670", "addr:street": "Avenida 5 de Mayo", "amenity": "clinic", "healthcare": "clinic", "name": "Consultorio M\u00e9dico Ginecol\u00f3gico"}}, {"type": "node", "id": 12389245582, "lat": 16.1750043, "lon": -95.1910542, "tags": {"addr:postcode": "70670", "addr:street": "Avenida 5 de Mayo", "amenity": "clinic", "healthcare": "clinic", "name": "Centro Integral de Nutrici\u00f3n"}}, {"type": "node", "id": 12389361457, "lat": 16.1725145, "lon": -95.1901576, "tags": {"addr:neighbourhood": "PACIFICO", "addr:postcode": "70680", "addr:street": "Avenida 5 de Mayo", "amenity": "clinic", "email": "clinicasalinacruz@gmail.com", "healthcare": "clinic", "name": "Consultorio Ginecologia y Obstetricia Medicina Materno Fetal"}}, {"type": "node", "id": 12389389203, "lat": 16.1833152, "lon": -95.1987364, "tags": {"addr:postcode": "70650", "addr:street": "Calle Laborista", "amenity": "clinic", "healthcare": "clinic", "name": "Consultorio Medico"}}, {"type": "node", "id": 12389405281, "lat": 16.1805059, "lon": -95.1957366, "tags": {"addr:neighbourhood": "FRONTERA", "addr:postcode": "70600", "addr:street": "Avenida Tampico", "amenity": "clinic", "healthcare": "clinic", "name": "Unidad De Colposcopia", "phone": "9717145074"}}, {"type": "node", "id": 12389437760, "lat": 16.1960683, "lon": -95.2037943, "tags": {"addr:postcode": "70630", "addr:street": "20 de Noviembre", "amenity": "clinic", "healthcare": "clinic", "name": "Cama De Determomasaje Seragem"}}, {"type": "node", "id": 12389445176, "lat": 16.1856881, "lon": -95.1992991, "tags": {"addr:neighbourhood": "AVENIDA DEL TRABAJO", "addr:postcode": "70650", "addr:street": "Calle Constancia", "amenity": "clinic", "email": "mreyesh77@gmail.com", "healthcare": "clinic", "name": "Consultorio Medico De Especialidades"}}, {"type": "node", "id": 12389478387, "lat": 16.1751488, "lon": -95.1907799, "tags": {"addr:neighbourhood": "COATZACOALCOS", "addr:postcode": "70670", "addr:street": "H\u00e9roes de la Marina", "amenity": "clinic", "email": "vivian_milenio@hotmail.com", "healthcare": "clinic", "name": "Consultorio Medico"}}, {"type": "node", "id": 12391838451, "lat": 16.1745804, "lon": -95.1921757, "tags": {"addr:postcode": "70600", "addr:street": "Avenida Manuel \u00c1vila Camacho", "amenity": "clinic", "email": "derejoseacarmona@gmail.com", "name": "Unidad De Asma y Alergia"}}, {"type": "node", "id": 12392113841, "lat": 16.1848654, "lon": -95.1975385, "tags": {"addr:city": "Salina Cruz", "addr:neighbourhood": "PRIMERO DE MAYO", "addr:postcode": "70650", "addr:state": "Oax", "addr:street": "Avenida Tampico", "amenity": "clinic", "email": "rafamoreno2000@yahoo.com.mx", "healthcare": "clinic", "name": "Cl\u00ednica de Especialidades", "phone": "9717144143"}}, {"type": "node", "id": 12392117473, "lat": 16.1726856, "lon": -95.1902112, "tags": {"addr:city": "Salina Cruz", "addr:neighbourhood": "PACIFICO", "addr:postcode": "70680", "addr:state": "Oax", "addr:street": "Avenida 5 de Mayo", "amenity": "clinic", "healthcare": "clinic", "healthcare:speciality": "ophthalmology", "name": "Consultorio De Oftalmolog\u00eda"}}, {"type": "node", "id": 12392353698, "lat": 16.1861638, "lon": -95.2029498, "tags": {"addr:postcode": "70650", "addr:street": "Belisario Dom\u00ednguez", "amenity": "clinic", "name": "Consultorio Medico General"}}, {"type": "node", "id": 12392358097, "lat": 16.1727021, "lon": -95.1902198, "tags": {"addr:city": "Salina Cruz", "addr:neighbourhood": "PACIFICO", "addr:postcode": "70680", "addr:state": "Oax", "addr:street": "Avenida 5 de Mayo", "amenity": "clinic", "healthcare": "clinic", "name": "Consultorio De Neumologia", "phone": "9711111958"}}, {"type": "node", "id": 12392510507, "lat": 16.2028656, "lon": -95.1971987, "tags": {"addr:street": "Calle Nicol\u00e1s Bravo", "amenity": "clinic", "healthcare": "clinic", "name": "Laboratorio de An\u00e1lisis Cl\u00ednicos Santa Cruz", "phone": "9711539194", "website": "www.laboratoriosantacruz.com"}}, {"type": "node", "id": 12392551420, "lat": 16.2012608, "lon": -95.2008475, "tags": {"addr:postcode": "70610", "addr:street": "Porfirio D\u00edaz", "amenity": "clinic", "healthcare": "clinic", "name": "Clinica La Sagrada Familia", "phone": "9717285907"}}, {"type": "node", "id": 12392581469, "lat": 16.1927738, "lon": -95.2013706, "tags": {"addr:postcode": "70630", "amenity": "clinic", "healthcare": "clinic", "name": "Consultorio Nutrisan", "phone": "9711156051"}}, {"type": "node", "id": 12392581619, "lat": 16.1928381, "lon": -95.2007228, "tags": {"addr:postcode": "70630", "addr:street": "Calle Juan Escutia", "amenity": "clinic", "contact:phone": "9711134103", "email": "optica-vision-laser@hotmail.com", "healthcare": "clinic", "name": "Cl\u00ednica Biani Lua"}}, {"type": "node", "id": 12392583997, "lat": 16.1798711, "lon": -95.1949413, "tags": {"amenity": "clinic", "healthcare": "clinic", "name": "Consultorio Medico"}}, {"type": "node", "id": 12392619999, "lat": 16.1933662, "lon": -95.2093019, "tags": {"addr:postcode": "70610", "addr:street": "Calle 5 de Mayo", "amenity": "clinic", "healthcare": "clinic", "name": "Consultorio Quiropractico", "phone": "9711010725"}}, {"type": "node", "id": 12392628229, "lat": 16.2045963, "lon": -95.1980098, "tags": {"addr:postcode": "70610", "addr:street": "Avenida Oleoducto", "amenity": "clinic", "healthcare": "clinic", "name": "Consultorio M\u00e9dico Homeopatico"}}, {"type": "node", "id": 12392694911, "lat": 16.1779007, "lon": -95.1910678, "tags": {"addr:city": "Salina Cruz", "addr:postcode": "70680", "addr:state": "Oaxaca", "addr:street": "Avenida Puerto \u00c1ngel", "amenity": "clinic", "healthcare": "clinic", "healthcare:speciality": "general", "name": "Consultorio M\u00e9dico De Especialidades"}}, {"type": "node", "id": 12392706576, "lat": 16.1780258, "lon": -95.1933377, "tags": {"addr:city": "Salina Cruz", "addr:postcode": "70600", "addr:state": "Oaxaca", "addr:street": "Calle Guaymas", "amenity": "clinic", "healthcare": "clinic", "healthcare:speciality": "paediatrics", "name": "M\u00e9dico Pediatra", "phone": "9717146955"}}, {"type": "node", "id": 12392847103, "lat": 16.1818058, "lon": -95.1936902, "tags": {"addr:city": "Salina Cruz", "addr:postcode": "70670", "addr:state": "Oaxaca", "addr:street": "Avenida 5 de Mayo", "amenity": "clinic", "healthcare": "clinic", "name": "Consultorio M\u00e9dico", "phone": "9711272608"}}, {"type": "node", "id": 12392877896, "lat": 16.1799375, "lon": -95.1988352, "tags": {"addr:postcode": "70660", "addr:street": "Calle Morelos", "amenity": "clinic", "name": "Consultorio M\u00e9dico"}}, {"type": "node", "id": 12394123686, "lat": 16.2030003, "lon": -95.1972967, "tags": {"addr:postcode": "70610", "addr:street": "Calle Nicol\u00e1s Bravo", "amenity": "clinic", "healthcare": "clinic", "phone": "9712234780"}}, {"type": "node", "id": 12394124900, "lat": 16.1766928, "lon": -95.19763, "tags": {"addr:postcode": "70690", "addr:street": "20 de Noviembre", "amenity": "clinic", "healthcare": "clinic", "name": "Consultorio Pediatrico", "phone": "9712634303"}}, {"type": "node", "id": 12394223925, "lat": 16.2045139, "lon": -95.1980446, "tags": {"addr:postcode": "70610", "addr:street": "Avenida Oleoducto", "amenity": "clinic", "healthcare": "clinic", "healthcare:speciality": "general", "name": "Consultorio M\u00e9dico Doctora Campos", "phone": "9717287889"}}, {"type": "node", "id": 12394224612, "lat": 16.1786319, "lon": -95.1949817, "tags": {"addr:postcode": "70600", "addr:street": "Avenida Tampico", "amenity": "clinic", "healthcare": "clinic", "name": "Consultorio M\u00e9dico", "phone": "9711165595"}}, {"type": "node", "id": 12394986892, "lat": 16.2028279, "lon": -95.197344, "tags": {"addr:postcode": "70610", "addr:street": "Calle Nicol\u00e1s Bravo", "amenity": "clinic", "healthcare": "clinic", "name": "Especialidades Medicas Del Puerto De Salina Cruz"}}, {"type": "node", "id": 12427769308, "lat": 16.1800123, "lon": -95.1954992, "tags": {"addr:city": "Salina Cruz", "addr:postcode": "70600", "addr:state": "Oaxaca", "addr:street": "Avenida Tampico", "amenity": "clinic", "healthcare": "clinic", "healthcare:speciality": "otolaryngology", "name": "Consultorio Medico De Otorrinolaringologo"}}, {"type": "way", "id": 524493906, "nodes": [5104018953, 5104018952, 5104018951, 5104018950, 5104018953], "tags": {"addr:postcode": "70660", "addr:street": "Calle Morelos", "amenity": "clinic", "building": "yes", "email": "c.salinacruz@issste.gob.mx", "healthcare": "clinic", "name": "Instito De Seguridad y Servicios Sociales de Los Trabajadores del Estado Clinica de Medicina Familiar Salina Cruz", "phone": "9717140221"}}, {"type": "way", "id": 524495888, "nodes": [5104036542, 5104036541, 8437214404, 5153210399, 5153210398, 5153210397, 5153210400, 5104036540, 5104036539, 5153210401, 5153210402, 5104036542], "tags": {"addr:postcode": "70600", "addr:street": "Avenida Tampico", "amenity": "clinic", "building": "yes", "healthcare": "clinic", "name": "Especialidades M\u00e9dicas del Itsmo", "phone": "9711019187"}}, {"type": "way", "id": 525666898, "nodes": [5113377563, 5113377564, 5113377565, 5113377566, 5113377563], "tags": {"addr:street": "Juana C. Romero", "amenity": "clinic", "building": "yes", "healthcare": "clinic", "name": "Cl\u00ednica de PEMEX"}}, {"type": "way", "id": 526793703, "nodes": [5122092168, 5122092166, 5122092167, 5122092169, 5122092168], "tags": {"addr:postcode": "70620", "addr:street": "Avenida Monte Alb\u00e1n", "amenity": "clinic", "name": "Pediatra Pintado", "phone": "9717199664"}}, {"type": "way", "id": 528543844, "nodes": [5136143724, 5136143783, 5136143854, 5136143874, 5136143724], "tags": {"addr:postcode": "70610", "addr:street": "Calle Nicol\u00e1s Bravo", "amenity": "clinic", "building": "yes", "email": "dranataliediaz@gmail.com", "healthcare": "clinic", "name": "Ginecologia y Obstetricia Istmo", "phone": "9712305979"}}, {"type": "way", "id": 530911892, "nodes": [5154372114, 5154372115, 5154372116, 5154372113, 5154372114], "tags": {"addr:neighbourhood": "Frontera", "addr:postcode": "70670", "addr:street": "Avenida 5 de Mayo", "amenity": "clinic", "building": "yes", "name": "Consultorio de Nutrici\u00f3n", "phone": "9711527298"}}, {"type": "way", "id": 530952699, "nodes": [5154684424, 5154684421, 5154684422, 5154684423, 5154684424], "tags": {"addr:city": "Salina Cruz", "addr:postcode": "70650", "addr:state": "Oax", "addr:street": "Avenida Manuel \u00c1vila Camacho", "amenity": "clinic", "building": "yes", "email": "i.fpe4@hotmail.com", "healthcare": "clinic", "healthcare:speciality": "humanistic", "name": "Cl\u00ednica de psicolog\u00eda", "phone": "9712646020"}}]}