{"version": 0.6, "generator": "Overpass API 0.7.62.7 375dc00a", "osm3s": {"timestamp_osm_base": "2025-07-07T02:14:04Z", "copyright": "The data included in this document is from www.openstreetmap.org. The data is made available under ODbL."}, "elements": [{"type": "node", "id": 4641397289, "lat": 16.9180284, "lon": -96.3638045, "tags": {"highway": "bus_stop", "name": "La Cuchilla", "name:es": "La Cuchilla"}}, {"type": "node", "id": 5239765221, "lat": 16.918176, "lon": -96.3634387, "tags": {"highway": "bus_stop", "name": "Collectivo para Hierve el Agua", "name:es": "Collectivo-taxi para Hierve el Agua"}}, {"type": "node", "id": 7089983485, "lat": 16.7929875, "lon": -96.6746898, "tags": {"amenity": "taxi", "bench": "yes", "bin": "yes", "highway": "bus_stop", "name:en": "Collectivo Taxi to Oaxaca", "public_transport": "platform", "shelter": "yes"}}, {"type": "node", "id": 7192149985, "lat": 16.9182128, "lon": -96.3636328, "tags": {"highway": "bus_stop", "name:en": "Collective taxi to Oaxaca"}}, {"type": "node", "id": 9900657840, "lat": 16.8016456, "lon": -96.3921519, "tags": {"bus": "yes", "highway": "bus_stop", "public_transport": "platform"}}, {"type": "node", "id": 9900657841, "lat": 16.8016356, "lon": -96.392005, "tags": {"bus": "yes", "highway": "bus_stop", "public_transport": "platform"}}, {"type": "node", "id": 9900657842, "lat": 16.8044462, "lon": -96.4004929, "tags": {"bus": "yes", "highway": "bus_stop", "public_transport": "platform"}}, {"type": "node", "id": 9900657843, "lat": 16.8032169, "lon": -96.4170615, "tags": {"bus": "yes", "highway": "bus_stop", "public_transport": "platform"}}, {"type": "node", "id": 9900657844, "lat": 16.7837162, "lon": -96.3597001, "tags": {"bus": "yes", "highway": "bus_stop", "public_transport": "platform"}}, {"type": "node", "id": 9900657845, "lat": 16.7832021, "lon": -96.3594139, "tags": {"bus": "yes", "highway": "bus_stop", "public_transport": "platform"}}, {"type": "node", "id": 9900657846, "lat": 16.7836369, "lon": -96.359369, "tags": {"bus": "yes", "highway": "bus_stop", "public_transport": "platform"}}, {"type": "node", "id": 9900657847, "lat": 16.7995727, "lon": -96.3525321, "tags": {"bus": "yes", "highway": "bus_stop", "public_transport": "platform"}}, {"type": "node", "id": 9938031417, "lat": 16.9172887, "lon": -96.3983279, "tags": {"highway": "bus_stop", "name": "colectivo ayutla"}}]}