{"version": 0.6, "generator": "Overpass API 0.7.62.7 375dc00a", "osm3s": {"timestamp_osm_base": "2025-07-07T02:13:03Z", "copyright": "The data included in this document is from www.openstreetmap.org. The data is made available under ODbL."}, "elements": [{"type": "node", "id": 2006800195, "lat": 18.3238866, "lon": -97.3514097, "tags": {"amenity": "school", "name": "Primaria Meliton Ramirez Valdez"}}, {"type": "node", "id": 2006800424, "lat": 18.3306097, "lon": -97.3463733, "tags": {"amenity": "school", "name": "Escuela Rafael Avila camacho"}}, {"type": "node", "id": 2006832242, "lat": 18.3302564, "lon": -97.3494959, "tags": {"amenity": "school", "name": "Telesecundaria Lauro Aguirre"}}, {"type": "node", "id": 2006849933, "lat": 18.3286167, "lon": -97.3596883, "tags": {"amenity": "school", "name": "Bachillerato Oficial Alfonso Reyes"}}, {"type": "node", "id": 5903164231, "lat": 18.3793041, "lon": -97.2651063, "tags": {"amenity": "school"}}, {"type": "node", "id": 5903164232, "lat": 18.3774703, "lon": -97.256749, "tags": {"amenity": "school"}}]}